state,name,lon,lat,region,cluster
MA,6th Space Warning Squadron,-70.545303,41.754192,NE,0
MA,6th Space Warning Squadron,-70.541801,41.752491,NE,0
MA,AFCEE MMR Turbines,-70.547798,41.75959,NE,0
MA,AFCEE MMR Turbines,-70.545303,41.757591,NE,0
MA,Air Force (Barnstable),-70.591103,41.657692,NE,0
NH,Antrim,-72.009064,43.061455,NE,0
NH,Antrim,-72.00619499999998,43.064255,NE,0
NH,Antrim,-72.021332,43.045483,NE,0
NH,Antrim,-72.019981,43.052677,NE,0
NH,Antrim,-72.01645699999997,43.058723,NE,0
NH,Antrim,-72.021606,43.048389,NE,0
NH,Antrim,-72.019501,43.056614,NE,0
NH,Antrim,-72.00782,43.067608,NE,0
NH,Antrim,-72.02399399999999,43.04313300000001,NE,0
MA,Applied Materials,-70.649399,42.628193,NE,0
NY,Arkwright Summit,-79.244499,42.414898,NE,0
NY,Arkwright Summit,-79.248459,42.428749,NE,0
NY,Arkwright Summit,-79.227005,42.417694,NE,0
NY,Arkwright Summit,-79.232803,42.430202,NE,0
NY,Arkwright Summit,-79.25239599999998,42.430599,NE,0
NY,Arkwright Summit,-79.228981,42.413719,NE,0
NY,Arkwright Summit,-79.259651,42.431263,NE,0
NY,Arkwright Summit,-79.214523,42.381958,NE,0
NY,Arkwright Summit,-79.250679,42.420475,NE,0
NY,Arkwright Summit,-79.217438,42.390697,NE,0
NY,Arkwright Summit,-79.25518000000002,42.424694,NE,0
NY,Arkwright Summit,-79.197357,42.379391,NE,0
NY,Arkwright Summit,-79.2416,42.393955,NE,0
NY,Arkwright Summit,-79.25061,42.423431,NE,0
NY,Arkwright Summit,-79.245773,42.418236,NE,0
NY,Arkwright Summit,-79.20575,42.381874,NE,0
NY,Arkwright Summit,-79.22216800000002,42.388699,NE,0
NY,Arkwright Summit,-79.2239,42.41285300000001,NE,0
NY,Arkwright Summit,-79.229759,42.427402,NE,0
NY,Arkwright Summit,-79.259148,42.427994,NE,0
NY,Arkwright Summit,-79.242203,42.403996,NE,0
NY,Arkwright Summit,-79.22332,42.416336,NE,0
NY,Arkwright Summit,-79.194038,42.378143,NE,0
NY,Arkwright Summit,-79.224182,42.390987,NE,0
NY,Arkwright Summit,-79.218674,42.408447,NE,0
NY,Arkwright Summit,-79.21597299999998,42.393768,NE,0
NY,Arkwright Summit,-79.231461,42.39780800000001,NE,0
NY,Arkwright Summit,-79.245026,42.427578,NE,0
NY,Arkwright Summit,-79.259079,42.425243,NE,0
NY,Arkwright Summit,-79.23028599999998,42.395222,NE,0
NY,Arkwright Summit,-79.219643,42.386463,NE,0
NY,Arkwright Summit,-79.209778,42.382069,NE,0
NY,Arkwright Summit,-79.231186,42.410717,NE,0
NY,Arkwright Summit,-79.22126,42.410576,NE,0
NY,Arkwright Summit,-79.250298,42.417698,NE,0
NY,Arkwright Summit,-79.221886,42.395088,NE,0
MA,Barnstable Wastewater Treatment Facility,-70.30639599999999,41.663692,NE,0
MA,Barnstable Wastewater Treatment Facility,-70.304802,41.664291,NE,0
NJ,Bayonne Wind Energy Project,-74.117699,40.652794,NE,-1
MA,Berkshire East Ski Area,-72.866798,42.616291,NE,0
MA,Berkshire Wind,-73.274101,42.582291,NE,0
MA,Berkshire Wind,-73.275497,42.57999,NE,0
MA,Berkshire Wind,-73.275101,42.586491,NE,0
MA,Berkshire Wind,-73.2761,42.588692,NE,0
MA,Berkshire Wind,-73.276199,42.577591,NE,0
MA,Berkshire Wind,-73.273895,42.592392,NE,0
MA,Berkshire Wind,-73.275696,42.575993,NE,0
MA,Berkshire Wind,-73.274597,42.58989,NE,0
MA,Berkshire Wind,-73.275101,42.584892,NE,0
MA,Berkshire Wind,-73.273499,42.59449,NE,0
MA,Berkshire Wind Power Project Phase II,-73.272575,42.596577,NE,0
MA,Berkshire Wind Power Project Phase II,-73.271652,42.599884,NE,0
ME,Bingham Wind,-69.78827700000001,45.058041,NE,1
ME,Bingham Wind,-69.685005,45.14526400000001,NE,1
ME,Bingham Wind,-69.691109,45.132149,NE,1
ME,Bingham Wind,-69.655525,45.166904,NE,1
ME,Bingham Wind,-69.650414,45.177078,NE,1
ME,Bingham Wind,-69.636375,45.158688,NE,1
ME,Bingham Wind,-69.696579,45.122189,NE,1
ME,Bingham Wind,-69.738457,45.088619,NE,1
ME,Bingham Wind,-69.65055100000001,45.167007,NE,1
ME,Bingham Wind,-69.696899,45.125244,NE,1
ME,Bingham Wind,-69.679024,45.149693,NE,1
ME,Bingham Wind,-69.645561,45.167099,NE,1
ME,Bingham Wind,-69.628914,45.163555,NE,1
ME,Bingham Wind,-69.666557,45.156021,NE,1
ME,Bingham Wind,-69.641479,45.168106,NE,1
ME,Bingham Wind,-69.783966,45.066711,NE,1
ME,Bingham Wind,-69.74296600000001,45.088017,NE,1
ME,Bingham Wind,-69.65825699999999,45.174728,NE,1
ME,Bingham Wind,-69.790161,45.05587,NE,1
ME,Bingham Wind,-69.71775799999999,45.10323,NE,1
ME,Bingham Wind,-69.699608,45.12001,NE,1
ME,Bingham Wind,-69.791794,45.05302800000001,NE,1
ME,Bingham Wind,-69.667389,45.153019,NE,1
ME,Bingham Wind,-69.661751,45.156464,NE,1
ME,Bingham Wind,-69.658386,45.15781,NE,1
ME,Bingham Wind,-69.68808,45.134323,NE,1
ME,Bingham Wind,-69.646149,45.177979,NE,1
ME,Bingham Wind,-69.718468,45.100208,NE,1
ME,Bingham Wind,-69.772285,45.07523,NE,1
ME,Bingham Wind,-69.68573,45.142021,NE,1
ME,Bingham Wind,-69.782211,45.070286,NE,1
ME,Bingham Wind,-69.67529300000001,45.151234,NE,1
ME,Bingham Wind,-69.65128299999999,45.160717,NE,1
ME,Bingham Wind,-69.773605,45.080273,NE,1
ME,Bingham Wind,-69.726563,45.098064,NE,1
ME,Bingham Wind,-69.77628299999999,45.074055,NE,1
ME,Bingham Wind,-69.78076899999999,45.073177,NE,1
ME,Bingham Wind,-69.63383499999999,45.170956,NE,1
ME,Bingham Wind,-69.7864,45.060207,NE,1
ME,Bingham Wind,-69.68888100000001,45.14043,NE,1
ME,Bingham Wind,-69.637566,45.169407,NE,1
ME,Bingham Wind,-69.642815,45.179356,NE,1
ME,Bingham Wind,-69.73028599999999,45.096508,NE,1
ME,Bingham Wind,-69.62943299999999,45.172623,NE,1
ME,Bingham Wind,-69.747475,45.08741,NE,1
ME,Bingham Wind,-69.751671,45.086685,NE,1
ME,Bingham Wind,-69.68274699999999,45.148129,NE,1
ME,Bingham Wind,-69.671722,45.152958,NE,1
ME,Bingham Wind,-69.69722,45.1283,NE,1
ME,Bingham Wind,-69.65501400000001,45.159168,NE,1
ME,Bingham Wind,-69.69414499999999,45.129959,NE,1
ME,Bingham Wind,-69.787743,45.06522800000001,NE,1
ME,Bingham Wind,-69.700439,45.116833,NE,1
ME,Bingham Wind,-69.63205,45.15871,NE,1
ME,Bingham Wind,-69.722511,45.099136,NE,1
ME,Bingham Wind,-69.654915,45.176117,NE,1
ME,Bull Hill,-68.156601,44.73299,NE,1
ME,Bull Hill,-68.1595,44.731892,NE,1
ME,Bull Hill,-68.164001,44.69389,NE,1
ME,Bull Hill,-68.17469799999999,44.725693,NE,1
ME,Bull Hill,-68.1539,44.697491,NE,1
ME,Bull Hill,-68.14810200000001,44.73629,NE,1
ME,Bull Hill,-68.15100100000001,44.735291,NE,1
ME,Bull Hill,-68.153,44.706593,NE,1
ME,Bull Hill,-68.160896,44.695091,NE,1
ME,Bull Hill,-68.157997,44.696091,NE,1
ME,Bull Hill,-68.153702,44.70179,NE,1
ME,Bull Hill,-68.16840400000001,44.728291,NE,1
ME,Bull Hill,-68.151398,44.716091,NE,1
ME,Bull Hill,-68.151703,44.71118900000001,NE,1
ME,Bull Hill,-68.165497,44.729591,NE,1
ME,Bull Hill,-68.171402,44.72699,NE,1
ME,Bull Hill,-68.1623,44.730789,NE,1
ME,Bull Hill,-68.167099,44.692791,NE,1
ME,Bull Hill,-68.153801,44.734192,NE,1
MA,Camelot Wind Project,-70.644302,41.925491,NE,0
ME,Canton Mountain,-70.30319200000001,44.514629,NE,1
ME,Canton Mountain,-70.303886,44.512718,NE,1
ME,Canton Mountain,-70.301132,44.518677,NE,1
ME,Canton Mountain,-70.303337,44.507622,NE,1
ME,Canton Mountain,-70.300888,44.520935,NE,1
ME,Canton Mountain,-70.30261999999999,44.51646,NE,1
ME,Canton Mountain,-70.310333,44.507473,NE,1
ME,Canton Mountain,-70.30328399999999,44.510708,NE,1
MA,Cape Cod Regional Transit Authority,-70.144402,41.69009000000001,NE,0
MA,Charlestown Wind Turbine,-71.070999,42.391491,NE,0
MA,City of Medford,-71.099098,42.408993,NE,0
NY,Copenhagen,-75.668747,43.913235,NE,0
NY,Copenhagen,-75.635063,43.899338,NE,0
NY,Copenhagen,-75.694664,43.910301,NE,0
NY,Copenhagen,-75.621544,43.902374,NE,0
NY,Copenhagen,-75.69693000000002,43.912449,NE,0
NY,Copenhagen,-75.705383,43.887222,NE,0
NY,Copenhagen,-75.592972,43.886776,NE,0
NY,Copenhagen,-75.618286,43.901035,NE,0
NY,Copenhagen,-75.624771,43.904068,NE,0
NY,Copenhagen,-75.705574,43.891418,NE,0
NY,Copenhagen,-75.671944,43.916294,NE,0
NY,Copenhagen,-75.677818,43.920322,NE,0
NY,Copenhagen,-75.586922,43.868786,NE,0
NY,Copenhagen,-75.578293,43.87352,NE,0
NY,Copenhagen,-75.639656,43.872139,NE,0
NY,Copenhagen,-75.575859,43.871052,NE,0
NY,Copenhagen,-75.602776,43.89112100000001,NE,0
NY,Copenhagen,-75.595314,43.87458,NE,0
NY,Copenhagen,-75.639565,43.881844,NE,0
NY,Copenhagen,-75.61673,43.898449,NE,0
NY,Copenhagen,-75.708015,43.893444,NE,0
NY,Copenhagen,-75.597,43.890461,NE,0
NY,Copenhagen,-75.680679,43.922237,NE,0
NY,Copenhagen,-75.58078,43.876072,NE,0
NY,Copenhagen,-75.703369,43.884205,NE,0
NY,Copenhagen,-75.642586,43.873894,NE,0
NY,Copenhagen,-75.64200600000002,43.894241,NE,0
NY,Copenhagen,-75.66645799999998,43.910229,NE,0
NY,Copenhagen,-75.59058399999998,43.87012100000001,NE,0
NY,Copenhagen,-75.586067,43.885586,NE,0
NY,Copenhagen,-75.592751,43.872795,NE,0
NY,Copenhagen,-75.645409,43.876301,NE,0
NY,Copenhagen,-75.704697,43.875538,NE,0
NY,Copenhagen,-75.695175,43.876385,NE,0
NY,Copenhagen,-75.62912,43.881485,NE,0
NY,Copenhagen,-75.572609,43.867901,NE,0
NY,Copenhagen,-75.665276,43.906898,NE,0
NY,Copenhagen,-75.67474399999998,43.91853,NE,0
NY,Copenhagen,-75.58309200000002,43.878216,NE,0
NY,Copenhagen,-75.664268,43.904247,NE,0
MD,Crisfield Waste Water Treatment Plant,-75.85838299999998,37.982826,NE,-1
MD,Criterion,-79.353394,39.357292,NE,2
MD,Criterion,-79.367935,39.344124,NE,2
MD,Criterion,-79.264595,39.423691,NE,2
MD,Criterion,-79.334396,39.37429,NE,2
MD,Criterion,-79.281097,39.412025,NE,2
MD,Criterion,-79.28094499999997,39.414402,NE,2
MD,Criterion,-79.361938,39.349968,NE,2
MD,Criterion,-79.336998,39.369892,NE,2
MD,Criterion,-79.332779,39.375893,NE,2
MD,Criterion,-79.354996,39.355492,NE,2
MD,Criterion,-79.366135,39.345322,NE,2
MD,Criterion,-79.27268199999997,39.421104,NE,2
MD,Criterion,-79.33564,39.371521,NE,2
MD,Criterion,-79.270226,39.422897,NE,2
MD,Criterion,-79.261993,39.425491,NE,2
MD,Criterion,-79.371796,39.339993,NE,2
MD,Criterion,-79.371094,39.341694,NE,2
MD,Criterion,-79.357925,39.353756,NE,2
MD,Criterion,-79.278198,39.417294,NE,2
MD,Criterion,-79.327896,39.379494,NE,2
MD,Criterion,-79.290199,39.404793,NE,2
MD,Criterion,-79.36434200000002,39.346504,NE,2
MD,Criterion,-79.35199,39.358425,NE,2
MD,Criterion,-79.363029,39.34822800000001,NE,2
MD,Criterion,-79.279099,39.415718,NE,2
MD,Criterion,-79.330399,39.377792,NE,2
MD,Criterion,-79.260696,39.426891,NE,2
MD,Criterion,-79.275757,39.419327,NE,2
MA,"Department of Correction, NCCI Gardner",-71.938202,42.581692,NE,0
MA,"Department of Correction, NCCI Gardner",-71.937798,42.57819,NE,0
NY,Dutch Hill/Cohocton,-77.414497,42.552292,NE,0
NY,Dutch Hill/Cohocton,-77.4067,42.518391,NE,0
NY,Dutch Hill/Cohocton,-77.447197,42.505993,NE,0
NY,Dutch Hill/Cohocton,-77.40929399999997,42.527092,NE,0
NY,Dutch Hill/Cohocton,-77.527794,42.44099,NE,0
NY,Dutch Hill/Cohocton,-77.498199,42.51609000000001,NE,0
NY,Dutch Hill/Cohocton,-77.45109599999998,42.560291,NE,0
NY,Dutch Hill/Cohocton,-77.445198,42.528893,NE,0
NY,Dutch Hill/Cohocton,-77.481995,42.544292,NE,0
NY,Dutch Hill/Cohocton,-77.434395,42.51609000000001,NE,0
NY,Dutch Hill/Cohocton,-77.523193,42.445492,NE,0
NY,Dutch Hill/Cohocton,-77.428993,42.558891,NE,0
NY,Dutch Hill/Cohocton,-77.492699,42.523991,NE,0
NY,Dutch Hill/Cohocton,-77.4487,42.562691,NE,0
NY,Dutch Hill/Cohocton,-77.439598,42.560692,NE,0
NY,Dutch Hill/Cohocton,-77.439194,42.530792,NE,0
NY,Dutch Hill/Cohocton,-77.49479699999998,42.527992,NE,0
NY,Dutch Hill/Cohocton,-77.4589,42.523193,NE,0
NY,Dutch Hill/Cohocton,-77.48679399999997,42.548191,NE,0
NY,Dutch Hill/Cohocton,-77.48859399999998,42.536091,NE,0
NY,Dutch Hill/Cohocton,-77.431793,42.555794,NE,0
NY,Dutch Hill/Cohocton,-77.431198,42.572891,NE,0
NY,Dutch Hill/Cohocton,-77.492393,42.530792,NE,0
NY,Dutch Hill/Cohocton,-77.48859399999998,42.545593,NE,0
NY,Dutch Hill/Cohocton,-77.453499,42.528492,NE,0
NY,Dutch Hill/Cohocton,-77.420998,42.542492,NE,0
NY,Dutch Hill/Cohocton,-77.418999,42.525692,NE,0
NY,Dutch Hill/Cohocton,-77.399498,42.529892,NE,0
NY,Dutch Hill/Cohocton,-77.397797,42.534992,NE,0
NY,Dutch Hill/Cohocton,-77.4991,42.520092,NE,0
NY,Dutch Hill/Cohocton,-77.483498,42.541092,NE,0
NY,Dutch Hill/Cohocton,-77.430595,42.575291,NE,0
NY,Dutch Hill/Cohocton,-77.495598,42.522491,NE,0
NY,Dutch Hill/Cohocton,-77.502998,42.545891,NE,0
NY,Dutch Hill/Cohocton,-77.456299,42.526093,NE,0
NY,Dutch Hill/Cohocton,-77.525497,42.443291,NE,0
NY,Dutch Hill/Cohocton,-77.406097,42.546391,NE,0
NY,Dutch Hill/Cohocton,-77.433296,42.520092,NE,0
NY,Dutch Hill/Cohocton,-77.42289699999998,42.538391,NE,0
NY,Dutch Hill/Cohocton,-77.40149699999998,42.526493,NE,0
NY,Dutch Hill/Cohocton,-77.4617,42.520992,NE,0
NY,Dutch Hill/Cohocton,-77.503799,42.542793,NE,0
NY,Dutch Hill/Cohocton,-77.436699,42.563492,NE,0
NY,Dutch Hill/Cohocton,-77.443298,42.564793,NE,0
NY,Dutch Hill/Cohocton,-77.43079399999998,42.569691,NE,0
NY,Dutch Hill/Cohocton,-77.485596,42.538391,NE,0
NY,Dutch Hill/Cohocton,-77.39999399999998,42.542992,NE,0
NY,Dutch Hill/Cohocton,-77.43229699999998,42.525291,NE,0
NY,Dutch Hill/Cohocton,-77.4412,42.549992,NE,0
NY,Dutch Hill/Cohocton,-77.489998,42.533493,NE,0
MA,Equity Industrial Partners,-70.65720400000002,42.62669,NE,0
MA,Equity Industrial Partners,-70.6558,42.625191,NE,0
MD,Fair Wind,-79.383255,39.329781,NE,2
MD,Fair Wind,-79.393959,39.318581,NE,2
MD,Fair Wind,-79.400345,39.313572,NE,2
MD,Fair Wind,-79.388489,39.324112,NE,2
MD,Fair Wind,-79.385429,39.32756,NE,2
MD,Fair Wind,-79.396034,39.316921,NE,2
MD,Fair Wind,-79.374527,39.338421,NE,2
MD,Fair Wind,-79.381378,39.331512,NE,2
MD,Fair Wind,-79.398308,39.315174,NE,2
MD,Fair Wind,-79.386375,39.325684,NE,2
MD,Fair Wind,-79.389839,39.322041,NE,2
MD,Fair Wind,-79.39164699999998,39.320221,NE,2
MA,Fairhaven Wind,-70.873398,41.639091,NE,0
MA,Fairhaven Wind,-70.8722,41.637192,NE,0
MA,Falmouth II,-70.621498,41.609291,NE,0
MA,Falmouth Notus,-70.608902,41.60849,NE,0
MA,Falmouth Wastewater,-70.620796,41.605892,NE,0
NY,Fenner Wind Power Project,-75.761101,42.989792,NE,0
NY,Fenner Wind Power Project,-75.7677,42.988293,NE,0
NY,Fenner Wind Power Project,-75.771896,42.995293,NE,0
NY,Fenner Wind Power Project,-75.763245,43.003555,NE,0
NY,Fenner Wind Power Project,-75.75569899999998,42.98999,NE,0
NY,Fenner Wind Power Project,-75.760597,43.001091,NE,0
NY,Fenner Wind Power Project,-75.7603,42.976891,NE,0
NY,Fenner Wind Power Project,-75.769501,42.99099,NE,0
NY,Fenner Wind Power Project,-75.767395,42.98069,NE,0
NY,Fenner Wind Power Project,-75.765396,43.005093,NE,0
NY,Fenner Wind Power Project,-75.739494,42.979492,NE,0
NY,Fenner Wind Power Project,-75.764801,42.994392,NE,0
NY,Fenner Wind Power Project,-75.759895,42.971493,NE,0
NY,Fenner Wind Power Project,-75.762001,42.98069,NE,0
NY,Fenner Wind Power Project,-75.76709699999998,43.000992,NE,0
NY,Fenner Wind Power Project,-75.7593,42.998592,NE,0
NY,Fenner Wind Power Project,-75.738251,42.977474,NE,0
NY,Fenner Wind Power Project,-75.759598,42.97459,NE,0
NY,Fenner Wind Power Project,-75.759598,42.99419,NE,0
NY,Fenner Wind Power Project - Repower,-75.767876,42.975517,NE,0
MA,Forbes Park,-71.01329799999998,42.39959,NE,0
MD,Fourmile Ridge,-78.984024,39.662014,NE,2
MD,Fourmile Ridge,-78.988045,39.656502,NE,2
MD,Fourmile Ridge,-79.008453,39.639423,NE,2
MD,Fourmile Ridge,-79.00145699999999,39.643494,NE,2
MD,Fourmile Ridge,-78.997635,39.648972,NE,2
MD,Fourmile Ridge,-78.989655,39.654602,NE,2
MD,Fourmile Ridge,-78.995644,39.651073,NE,2
MD,Fourmile Ridge,-79.00708,39.640263,NE,2
MD,Fourmile Ridge,-79.01804399999997,39.629433,NE,2
MD,Fourmile Ridge,-78.99987800000002,39.645542,NE,2
MD,Fourmile Ridge,-79.01284,39.634903,NE,2
MD,Fourmile Ridge,-79.025787,39.620422,NE,2
MD,Fourmile Ridge,-79.015961,39.631073,NE,2
MD,Fourmile Ridge,-79.020454,39.626621,NE,2
MD,Fourmile Ridge,-78.986053,39.658722,NE,2
MD,Fourmile Ridge,-79.014236,39.6329,NE,2
ME,Fox Islands,-68.866302,44.09259,NE,1
ME,Fox Islands,-68.864098,44.094292,NE,1
ME,Fox Islands,-68.866997,44.094791,NE,1
MA,Future Generation Wind,-70.616127,41.777271,NE,0
MA,Future Generation Wind,-70.623413,41.781647,NE,0
MA,Future Generation Wind,-70.613007,41.775017,NE,0
MA,Future Generation Wind,-70.61770600000001,41.770367,NE,0
ME,GSA,-70.396263,45.80381,NE,1
ME,GSA,-70.395042,45.803226,NE,1
NH,Granite Reliable Power,-71.317902,44.835793,NE,1
NH,Granite Reliable Power,-71.280396,44.72229,NE,1
NH,Granite Reliable Power,-71.293396,44.74979,NE,1
NH,Granite Reliable Power,-71.320198,44.790291,NE,1
NH,Granite Reliable Power,-71.315399,44.769192,NE,1
NH,Granite Reliable Power,-71.313698,44.801189,NE,1
NH,Granite Reliable Power,-71.314499,44.774391,NE,1
NH,Granite Reliable Power,-71.278603,44.738293,NE,1
NH,Granite Reliable Power,-71.283798,44.74189000000001,NE,1
NH,Granite Reliable Power,-71.28409599999998,44.726192,NE,1
NH,Granite Reliable Power,-71.314598,44.79789,NE,1
NH,Granite Reliable Power,-71.283401,44.744289,NE,1
NH,Granite Reliable Power,-71.3153,44.77269,NE,1
NH,Granite Reliable Power,-71.308601,44.844791,NE,1
NH,Granite Reliable Power,-71.318901,44.833893,NE,1
NH,Granite Reliable Power,-71.318703,44.794292,NE,1
NH,Granite Reliable Power,-71.288002,44.747089,NE,1
NH,Granite Reliable Power,-71.316696,44.79599,NE,1
NH,Granite Reliable Power,-71.311798,44.842293,NE,1
NH,Granite Reliable Power,-71.304802,44.846092,NE,1
NH,Granite Reliable Power,-71.319298,44.787689,NE,1
NH,Granite Reliable Power,-71.281601,44.729492,NE,1
NH,Granite Reliable Power,-71.309799,44.778393,NE,1
NH,Granite Reliable Power,-71.305199,44.75539000000001,NE,1
NH,Granite Reliable Power,-71.317299,44.83849,NE,1
NH,Granite Reliable Power,-71.315002,44.770992,NE,1
NH,Granite Reliable Power,-71.316002,44.840591,NE,1
NH,Granite Reliable Power,-71.321297,44.785789,NE,1
NH,Granite Reliable Power,-71.278198,44.735191,NE,1
NH,Granite Reliable Power,-71.31289699999998,44.776192,NE,1
NH,Granite Reliable Power,-71.298698,44.753193,NE,1
NH,Granite Reliable Power,-71.2808,44.732792,NE,1
NH,Granite Reliable Power,-71.320999,44.79269,NE,1
NH,Groton,-71.786301,43.756191,NE,0
NH,Groton,-71.826996,43.781292,NE,0
NH,Groton,-71.8339,43.78059,NE,0
NH,Groton,-71.789597,43.751991,NE,0
NH,Groton,-71.791199,43.74379,NE,0
NH,Groton,-71.81289699999998,43.769993,NE,0
NH,Groton,-71.816002,43.769093,NE,0
NH,Groton,-71.822998,43.762192,NE,0
NH,Groton,-71.819,43.768192,NE,0
NH,Groton,-71.792702,43.739292,NE,0
NH,Groton,-71.793701,43.737091,NE,0
NH,Groton,-71.789902,43.74839,NE,0
NH,Groton,-71.786201,43.76289000000001,NE,0
NH,Groton,-71.820198,43.780689,NE,0
NH,Groton,-71.792999,43.741791,NE,0
NH,Groton,-71.791298,43.74609,NE,0
NH,Groton,-71.8237,43.78109,NE,0
NH,Groton,-71.830696,43.780891,NE,0
NH,Groton,-71.82109799999998,43.766392,NE,0
NH,Groton,-71.785797,43.758392,NE,0
NH,Groton,-71.785698,43.76049,NE,0
NH,Groton,-71.829002,43.774891,NE,0
NH,Groton,-71.823196,43.764591,NE,0
NH,Groton,-71.7883,43.754292,NE,0
NY,Half Hollow Nursery,-72.570854,40.969059,NE,-1
ME,Hancock,-68.121826,44.769859,NE,1
ME,Hancock,-68.145424,44.775623,NE,1
ME,Hancock,-68.171959,44.765991,NE,1
ME,Hancock,-68.12960799999999,44.737743,NE,1
ME,Hancock,-68.125702,44.73901,NE,1
ME,Hancock,-68.157669,44.766171,NE,1
ME,Hancock,-68.11808,44.771362,NE,1
ME,Hancock,-68.133354,44.73624,NE,1
ME,Hancock,-68.141373,44.776638,NE,1
ME,Hancock,-68.120361,44.740738,NE,1
ME,Hancock,-68.148781,44.77383,NE,1
ME,Hancock,-68.15345,44.772755,NE,1
ME,Hancock,-68.157188,44.771259,NE,1
ME,Hancock,-68.121033,44.764629,NE,1
ME,Hancock,-68.126099,44.762589,NE,1
ME,Hancock,-68.175873,44.764725,NE,1
ME,Hancock,-68.179787,44.763466,NE,1
NY,Harbec Plastics,-77.360138,43.226955,NE,0
NY,Harbec Plastics,-77.36174,43.226089,NE,0
NY,Hardscrabble,-74.8936,43.19569,NE,0
NY,Hardscrabble,-74.90529599999998,43.204189,NE,0
NY,Hardscrabble,-74.90439599999998,43.12258900000001,NE,0
NY,Hardscrabble,-74.907394,43.154491,NE,0
NY,Hardscrabble,-74.871597,43.077789,NE,0
NY,Hardscrabble,-74.903198,43.199989,NE,0
NY,Hardscrabble,-74.881798,43.18959,NE,0
NY,Hardscrabble,-74.892601,43.201092,NE,0
NY,Hardscrabble,-74.904701,43.09539,NE,0
NY,Hardscrabble,-74.89409599999998,43.11829,NE,0
NY,Hardscrabble,-74.882301,43.192791,NE,0
NY,Hardscrabble,-74.894501,43.142693,NE,0
NY,Hardscrabble,-74.903999,43.111092,NE,0
NY,Hardscrabble,-74.9049,43.088791,NE,0
NY,Hardscrabble,-74.889,43.11359,NE,0
NY,Hardscrabble,-74.905396,43.091991,NE,0
NY,Hardscrabble,-74.900795,43.160393,NE,0
NY,Hardscrabble,-74.90459399999997,43.11409,NE,0
NY,Hardscrabble,-74.893501,43.19289000000001,NE,0
NY,Hardscrabble,-74.900497,43.162891,NE,0
NY,Hardscrabble,-74.865799,43.08849,NE,0
NY,Hardscrabble,-74.9039,43.098091,NE,0
NY,Hardscrabble,-74.899796,43.104893,NE,0
NY,Hardscrabble,-74.866295,43.091892,NE,0
NY,Hardscrabble,-74.89119699999998,43.127491,NE,0
NY,Hardscrabble,-74.904701,43.206791,NE,0
NY,Hardscrabble,-74.893997,43.189991,NE,0
NY,Hardscrabble,-74.895798,43.12529,NE,0
NY,Hardscrabble,-74.895996,43.122391,NE,0
NY,Hardscrabble,-74.900696,43.13559,NE,0
NY,Hardscrabble,-74.898895,43.138191,NE,0
NY,Hardscrabble,-74.903297,43.128391,NE,0
NY,Hardscrabble,-74.89209699999998,43.198292,NE,0
NY,Hardscrabble,-74.867401,43.08469,NE,0
NY,Hardscrabble,-74.901901,43.15789,NE,0
NY,Hardscrabble,-74.902,43.197292,NE,0
NY,Hardscrabble,-74.8937,43.187191,NE,0
NY,High Sheldon,-78.410797,42.753094,NE,0
NY,High Sheldon,-78.384796,42.726593,NE,0
NY,High Sheldon,-78.415497,42.767693,NE,0
NY,High Sheldon,-78.3452,42.754292,NE,0
NY,High Sheldon,-78.423798,42.775192,NE,0
NY,High Sheldon,-78.34389499999997,42.752193,NE,0
NY,High Sheldon,-78.412193,42.777992,NE,0
NY,High Sheldon,-78.4151,42.761391,NE,0
NY,High Sheldon,-78.370193,42.718491,NE,0
NY,High Sheldon,-78.425499,42.765892,NE,0
NY,High Sheldon,-78.403397,42.734894,NE,0
NY,High Sheldon,-78.358498,42.777794,NE,0
NY,High Sheldon,-78.4272,42.761692,NE,0
NY,High Sheldon,-78.397598,42.755192,NE,0
NY,High Sheldon,-78.39859799999998,42.75259000000001,NE,0
NY,High Sheldon,-78.4095,42.751293,NE,0
NY,High Sheldon,-78.356697,42.761192,NE,0
NY,High Sheldon,-78.41179699999998,42.757294,NE,0
NY,High Sheldon,-78.4076,42.774193,NE,0
NY,High Sheldon,-78.41499300000002,42.765392,NE,0
NY,High Sheldon,-78.412094,42.780891,NE,0
NY,High Sheldon,-78.3946,42.747993,NE,0
NY,High Sheldon,-78.424797,42.758991,NE,0
NY,High Sheldon,-78.40909599999998,42.776093,NE,0
NY,High Sheldon,-78.360893,42.708992,NE,0
NY,High Sheldon,-78.383301,42.724392,NE,0
NY,High Sheldon,-78.407494,42.74649,NE,0
NY,High Sheldon,-78.396599,42.750294,NE,0
NY,High Sheldon,-78.426796,42.779491,NE,0
NY,High Sheldon,-78.3918,42.727093,NE,0
NY,High Sheldon,-78.360596,42.767193,NE,0
NY,High Sheldon,-78.362595,42.710892,NE,0
NY,High Sheldon,-78.37269599999998,42.707092,NE,0
NY,High Sheldon,-78.3759,42.71339,NE,0
NY,High Sheldon,-78.38229399999999,42.722294,NE,0
NY,High Sheldon,-78.406494,42.739594,NE,0
NY,High Sheldon,-78.4104,42.731491,NE,0
NY,High Sheldon,-78.4076,42.724491,NE,0
NY,High Sheldon,-78.3722,42.720493,NE,0
NY,High Sheldon,-78.394897,42.74229,NE,0
NY,High Sheldon,-78.396294,42.735092,NE,0
NY,High Sheldon,-78.383896,42.731792,NE,0
NY,High Sheldon,-78.378799,42.710491,NE,0
NY,High Sheldon,-78.361298,42.773193,NE,0
NY,High Sheldon,-78.407097,42.722492,NE,0
NY,High Sheldon,-78.40639499999997,42.717892,NE,0
NY,High Sheldon,-78.340401,42.750492,NE,0
NY,High Sheldon,-78.406998,42.727192,NE,0
NY,High Sheldon,-78.370995,42.702492,NE,0
NY,High Sheldon,-78.379898,42.718193,NE,0
NY,High Sheldon,-78.408295,42.714893,NE,0
NY,High Sheldon,-78.406494,42.72039,NE,0
NY,High Sheldon,-78.412796,42.754692,NE,0
NY,High Sheldon,-78.394196,42.731293,NE,0
NY,High Sheldon,-78.425797,42.777191,NE,0
NY,High Sheldon,-78.405495,42.772491,NE,0
NY,High Sheldon,-78.355995,42.765293,NE,0
NY,High Sheldon,-78.396996,42.744392,NE,0
NY,High Sheldon,-78.382195,42.729591,NE,0
NY,High Sheldon,-78.40619699999998,42.765694,NE,0
NY,High Sheldon,-78.40679899999998,42.767593,NE,0
NY,High Sheldon,-78.40929399999997,42.741894,NE,0
NY,High Sheldon,-78.38409399999998,42.734993,NE,0
NY,High Sheldon,-78.380798,42.72039,NE,0
NY,High Sheldon,-78.377197,42.708191,NE,0
NY,High Sheldon,-78.359894,42.706291,NE,0
NY,High Sheldon,-78.422699,42.772892,NE,0
NY,High Sheldon,-78.39299799999998,42.729393,NE,0
NY,High Sheldon,-78.413399,42.759491,NE,0
NY,High Sheldon,-78.408798,42.748791,NE,0
NY,High Sheldon,-78.408997,42.72879,NE,0
NY,High Sheldon,-78.356895,42.775791,NE,0
NY,High Sheldon,-78.39349399999998,42.73999,NE,0
NY,High Sheldon,-78.394798,42.733192,NE,0
NY,High Sheldon,-78.411697,42.743793,NE,0
MA,Holiday Hill Community Wind,-72.87183399999998,42.21027,NE,0
MA,Holiday Hill Community Wind,-72.870468,42.215057,NE,0
MA,Holy Name Catholic High School,-71.783897,42.240891,NE,0
MA,Hoosac,-73.0466,42.728493,NE,0
MA,Hoosac,-73.041397,42.740589,NE,0
MA,Hoosac,-73.039597,42.736191,NE,0
MA,Hoosac,-73.0196,42.70919,NE,0
MA,Hoosac,-73.02220200000002,42.706291,NE,0
MA,Hoosac,-73.0224,42.704792,NE,0
MA,Hoosac,-73.020096,42.710892,NE,0
MA,Hoosac,-73.040497,42.737591,NE,0
MA,Hoosac,-73.040695,42.73489,NE,0
MA,Hoosac,-73.023003,42.71669,NE,0
MA,Hoosac,-73.043198,42.732292,NE,0
MA,Hoosac,-73.02359799999998,42.715191,NE,0
MA,Hoosac,-73.022797,42.713291,NE,0
MA,Hoosac,-73.045601,42.72979,NE,0
MA,Hoosac,-73.044197,42.730991,NE,0
MA,Hoosac,-73.0214,42.712193,NE,0
MA,Hoosac,-73.040398,42.739189,NE,0
MA,Hoosac,-73.02169,42.703548,NE,0
MA,Hoosac,-73.042099,42.733692,NE,0
NY,Howard,-77.503113,42.331425,NE,0
NY,Howard,-77.554703,42.302666,NE,0
NY,Howard,-77.568596,42.341393,NE,0
NY,Howard,-77.55289499999998,42.31229,NE,0
NY,Howard,-77.550301,42.32579000000001,NE,0
NY,Howard,-77.53429399999997,42.295994,NE,0
NY,Howard,-77.550026,42.328388,NE,0
NY,Howard,-77.533897,42.299294,NE,0
NY,Howard,-77.55162,42.322281,NE,0
NY,Howard,-77.511299,42.323994,NE,0
NY,Howard,-77.504112,42.328938,NE,0
NY,Howard,-77.55279499999997,42.309391,NE,0
NY,Howard,-77.52535999999998,42.283028,NE,0
NY,Howard,-77.52109499999997,42.287594,NE,0
NY,Howard,-77.523705,42.300213,NE,0
NY,Howard,-77.553024,42.306538,NE,0
NY,Howard,-77.5233,42.319393,NE,0
NY,Howard,-77.53743,42.293144,NE,0
NY,Howard,-77.55455,42.299248,NE,0
NY,Howard,-77.519852,42.313557,NE,0
NY,Howard,-77.52649699999998,42.306492,NE,0
NY,Howard,-77.5215,42.316692,NE,0
NY,Howard,-77.567497,42.338894,NE,0
NY,Howard,-77.553535,42.333912,NE,0
NY,Howard,-77.526596,42.288094,NE,0
NY,Howard,-77.551521,42.33139,NE,0
NY,Howard,-77.524597,42.303192,NE,0
MA,Hull I,-70.922195,42.30439000000001,NE,0
MA,Hull Wind Phase II,-70.85659799999998,42.261192,NE,0
MA,Hyannis Country Garden,-70.310799,41.651291,NE,0
MA,IBEW local 103,-71.0541,42.304691,NE,0
MA,Ipswich,-70.841103,42.716091,NE,0
MA,Ipswich II,-70.846397,42.717293,NE,0
NH,Jericho Mountain,-71.2192,44.46629,NE,1
NH,Jericho Mountain,-71.225662,44.468952,NE,1
NH,Jericho Mountain,-71.223137,44.469822,NE,1
NH,Jericho Mountain,-71.225296,44.46670200000001,NE,1
NH,Jericho Mountain,-71.220718,44.47118,NE,1
NY,Jericho Rise,-74.12485500000003,44.904667,NE,3
NY,Jericho Rise,-74.06017299999998,44.866219,NE,3
NY,Jericho Rise,-74.075737,44.856842,NE,3
NY,Jericho Rise,-74.10476700000002,44.914585,NE,3
NY,Jericho Rise,-74.092972,44.897095,NE,3
NY,Jericho Rise,-74.082771,44.883896,NE,3
NY,Jericho Rise,-74.107925,44.879681,NE,3
NY,Jericho Rise,-74.08465600000002,44.868668,NE,3
NY,Jericho Rise,-74.11829399999998,44.869556,NE,3
NY,Jericho Rise,-74.125366,44.907906,NE,3
NY,Jericho Rise,-74.0802,44.874996,NE,3
NY,Jericho Rise,-74.09845,44.90538,NE,3
NY,Jericho Rise,-74.095161,44.89962,NE,3
NY,Jericho Rise,-74.084,44.864433,NE,3
NY,Jericho Rise,-74.10194399999997,44.911491,NE,3
NY,Jericho Rise,-74.12346600000002,44.899189,NE,3
NY,Jericho Rise,-74.096954,44.869049,NE,3
NY,Jericho Rise,-74.08287,44.879982,NE,3
NY,Jericho Rise,-74.090637,44.857021,NE,3
NY,Jericho Rise,-74.076859,44.859943,NE,3
NY,Jericho Rise,-74.066833,44.870171,NE,3
NY,Jericho Rise,-74.072029,44.871758,NE,3
NY,Jericho Rise,-74.099785,44.87505,NE,3
NY,Jericho Rise,-74.099625,44.885441,NE,3
NY,Jericho Rise,-74.091888,44.859798,NE,3
NY,Jericho Rise,-74.126541,44.916359,NE,3
NY,Jericho Rise,-74.089256,44.890213,NE,3
NY,Jericho Rise,-74.11859100000002,44.87347000000001,NE,3
NY,Jericho Rise,-74.10234799999998,44.9072,NE,3
NY,Jericho Rise,-74.103951,44.888786,NE,3
NY,Jericho Rise,-74.086182,44.886532,NE,3
NY,Jericho Rise,-74.081497,44.862476,NE,3
NY,Jericho Rise,-74.058563,44.863804,NE,3
NY,Jericho Rise,-74.118935,44.865524,NE,3
NY,Jericho Rise,-74.12751,44.919155,NE,3
NY,Jericho Rise,-74.098152,44.872025,NE,3
NY,Jericho Rise,-74.12339,44.896072,NE,3
NJ,Jersey Atlantic Wind Farm,-74.44549599999998,39.382591,NE,-1
NJ,Jersey Atlantic Wind Farm,-74.447701,39.381092,NE,-1
NJ,Jersey Atlantic Wind Farm,-74.448502,39.383892,NE,-1
NJ,Jersey Atlantic Wind Farm,-74.450401,39.382294,NE,-1
NJ,Jersey Atlantic Wind Farm,-74.4496,39.379993,NE,-1
MA,Jiminy Peak Ski Resort,-73.292801,42.543793,NE,0
ME,Kibby Mountain II,-70.577698,45.354191,NE,1
ME,Kibby Mountain II,-70.548996,45.326191,NE,1
ME,Kibby Mountain II,-70.593002,45.318993,NE,1
ME,Kibby Mountain II,-70.589996,45.32078900000001,NE,1
ME,Kibby Mountain II,-70.575699,45.318993,NE,1
ME,Kibby Mountain II,-70.584999,45.328091,NE,1
ME,Kibby Mountain II,-70.551498,45.342491,NE,1
ME,Kibby Mountain II,-70.5793,45.346092,NE,1
ME,Kibby Mountain II,-70.583199,45.331593,NE,1
ME,Kibby Mountain II,-70.532402,45.333492,NE,1
ME,Kibby Mountain II,-70.530602,45.331593,NE,1
ME,Kibby Mountain II,-70.545601,45.331593,NE,1
ME,Kibby Mountain II,-70.53070100000002,45.329391,NE,1
ME,Kibby Mountain II,-70.57710300000002,45.351791,NE,1
ME,Kibby Mountain II,-70.5867,45.324093,NE,1
ME,Kibby Mountain II,-70.578499,45.357391,NE,1
ME,Kibby Mountain II,-70.54450200000002,45.335091,NE,1
ME,Kibby Mountain II,-70.583702,45.34029,NE,1
ME,Kibby Mountain II,-70.5812,45.343189,NE,1
ME,Kibby Mountain II,-70.583496,45.335293,NE,1
ME,Kibby Mountain II,-70.555,45.345692,NE,1
ME,Kibby Mountain II,-70.547096,45.32869,NE,1
ME,"Kibby Mountain, phase I",-70.53679699999998,45.393593,NE,1
ME,"Kibby Mountain, phase I",-70.525803,45.385391,NE,1
ME,"Kibby Mountain, phase I",-70.534599,45.395592,NE,1
ME,"Kibby Mountain, phase I",-70.539597,45.388889,NE,1
ME,"Kibby Mountain, phase I",-70.533997,45.380192,NE,1
ME,"Kibby Mountain, phase I",-70.536598,45.405392,NE,1
ME,"Kibby Mountain, phase I",-70.538498,45.391392,NE,1
ME,"Kibby Mountain, phase I",-70.5354,45.40049000000001,NE,1
ME,"Kibby Mountain, phase I",-70.536102,45.37809,NE,1
ME,"Kibby Mountain, phase I",-70.536598,45.402889,NE,1
ME,"Kibby Mountain, phase I",-70.534401,45.397793,NE,1
ME,"Kibby Mountain, phase I",-70.546501,45.398792,NE,1
ME,"Kibby Mountain, phase I",-70.5242,45.39069,NE,1
ME,"Kibby Mountain, phase I",-70.5438,45.400692,NE,1
ME,"Kibby Mountain, phase I",-70.53679699999998,45.40799000000001,NE,1
ME,"Kibby Mountain, phase I",-70.528801,45.383591,NE,1
ME,"Kibby Mountain, phase I",-70.5243,45.393089,NE,1
ME,"Kibby Mountain, phase I",-70.548996,45.39669,NE,1
ME,"Kibby Mountain, phase I",-70.531097,45.381691,NE,1
ME,"Kibby Mountain, phase I",-70.537796,45.410393,NE,1
ME,"Kibby Mountain, phase I",-70.538101,45.375992,NE,1
ME,"Kibby Mountain, phase I",-70.524002,45.388191,NE,1
MA,Kingston,-70.715897,41.97879,NE,0
MA,LWSC Wind Turbine,-70.956688,42.45269,NE,0
NH,Lempster,-72.141296,43.237892,NE,0
NH,Lempster,-72.138397,43.22979,NE,0
NH,Lempster,-72.139702,43.22739,NE,0
NH,Lempster,-72.159897,43.222389,NE,0
NH,Lempster,-72.15570100000002,43.225189,NE,0
NH,Lempster,-72.145401,43.23299,NE,0
NH,Lempster,-72.139496,43.241989,NE,0
NH,Lempster,-72.138802,43.245689,NE,0
NH,Lempster,-72.1549,43.227989,NE,0
NH,Lempster,-72.143196,43.235592,NE,0
NH,Lempster,-72.13849599999998,43.248791,NE,0
NH,Lempster,-72.149101,43.230289,NE,0
MA,MWRA Deer Island,-70.95644399999998,42.345852,NE,0
MA,MWRA Deer Island,-70.957298,42.347092,NE,0
NY,Madison Windpower,-75.455399,42.89719,NE,0
NY,Madison Windpower,-75.4534,42.892891,NE,0
NY,Madison Windpower,-75.450096,42.896191,NE,0
NY,Madison Windpower,-75.447395,42.89259000000001,NE,0
NY,Madison Windpower,-75.457497,42.894192,NE,0
NY,Madison Windpower,-75.44749499999998,42.894489,NE,0
NY,Madison Windpower,-75.452995,42.896893,NE,0
NY,Maple Ridge,-75.579399,43.794991,NE,0
NY,Maple Ridge,-75.5308,43.746693,NE,0
NY,Maple Ridge,-75.567001,43.750893,NE,0
NY,Maple Ridge,-75.571297,43.786289,NE,0
NY,Maple Ridge,-75.525696,43.735291,NE,0
NY,Maple Ridge,-75.668396,43.807091,NE,0
NY,Maple Ridge,-75.573097,43.73679,NE,0
NY,Maple Ridge,-75.513695,43.697891,NE,0
NY,Maple Ridge,-75.563797,43.779991,NE,0
NY,Maple Ridge,-75.521301,43.723892,NE,0
NY,Maple Ridge,-75.576897,43.73769,NE,0
NY,Maple Ridge,-75.523895,43.70129,NE,0
NY,Maple Ridge,-75.58899699999998,43.77919,NE,0
NY,Maple Ridge,-75.55680100000002,43.74649,NE,0
NY,Maple Ridge,-75.54029799999998,43.743591,NE,0
NY,Maple Ridge,-75.538498,43.757992,NE,0
NY,Maple Ridge,-75.512901,43.71759,NE,0
NY,Maple Ridge,-75.554199,43.736389,NE,0
NY,Maple Ridge,-75.549194,43.76659,NE,0
NY,Maple Ridge,-75.552399,43.76849,NE,0
NY,Maple Ridge,-75.533798,43.735191,NE,0
NY,Maple Ridge,-75.548698,43.750191,NE,0
NY,Maple Ridge,-75.572296,43.76609000000001,NE,0
NY,Maple Ridge,-75.554695,43.716492,NE,0
NY,Maple Ridge,-75.5149,43.719292,NE,0
NY,Maple Ridge,-75.533401,43.70229000000001,NE,0
NY,Maple Ridge,-75.556999,43.761089,NE,0
NY,Maple Ridge,-75.5774,43.78009,NE,0
NY,Maple Ridge,-75.52469599999998,43.714291,NE,0
NY,Maple Ridge,-75.569,43.78479,NE,0
NY,Maple Ridge,-75.596901,43.773891,NE,0
NY,Maple Ridge,-75.543594,43.744892,NE,0
NY,Maple Ridge,-75.576897,43.759491,NE,0
NY,Maple Ridge,-75.57339499999998,43.788292,NE,0
NY,Maple Ridge,-75.5625,43.722191,NE,0
NY,Maple Ridge,-75.579994,43.738792,NE,0
NY,Maple Ridge,-75.540497,43.731091,NE,0
NY,Maple Ridge,-75.5588,43.748093,NE,0
NY,Maple Ridge,-75.526794,43.69569,NE,0
NY,Maple Ridge,-75.572197,43.779091,NE,0
NY,Maple Ridge,-75.5867,43.77689,NE,0
NY,Maple Ridge,-75.50349399999998,43.712692,NE,0
NY,Maple Ridge,-75.531502,43.733589,NE,0
NY,Maple Ridge,-75.536697,43.737392,NE,0
NY,Maple Ridge,-75.541901,43.76099,NE,0
NY,Maple Ridge,-75.507599,43.69529,NE,0
NY,Maple Ridge,-75.594398,43.772591,NE,0
NY,Maple Ridge,-75.5588,43.771191,NE,0
NY,Maple Ridge,-75.56309499999998,43.731091,NE,0
NY,Maple Ridge,-75.583199,43.795692,NE,0
NY,Maple Ridge,-75.5914,43.771992,NE,0
NY,Maple Ridge,-75.543396,43.731892,NE,0
NY,Maple Ridge,-75.561401,43.74939000000001,NE,0
NY,Maple Ridge,-75.559502,43.762489,NE,0
NY,Maple Ridge,-75.589096,43.797192,NE,0
NY,Maple Ridge,-75.584099,43.775692,NE,0
NY,Maple Ridge,-75.507698,43.722893,NE,0
NY,Maple Ridge,-75.56019599999998,43.720791,NE,0
NY,Maple Ridge,-75.53029599999998,43.727291,NE,0
NY,Maple Ridge,-75.517799,43.721092,NE,0
NY,Maple Ridge,-75.54639399999998,43.732693,NE,0
NY,Maple Ridge,-75.5252,43.724392,NE,0
NY,Maple Ridge,-75.5103,43.724491,NE,0
NY,Maple Ridge,-75.513802,43.726089,NE,0
NY,Maple Ridge,-75.576599,43.789291,NE,0
NY,Maple Ridge,-75.55210100000002,43.744091,NE,0
NY,Maple Ridge,-75.521194,43.699593,NE,0
NY,Maple Ridge,-75.534401,43.74799,NE,0
NY,Maple Ridge,-75.515297,43.706291,NE,0
NY,Maple Ridge,-75.537498,43.730392,NE,0
NY,Maple Ridge,-75.581795,43.774193,NE,0
NY,Maple Ridge,-75.575317,43.768127,NE,0
NY,Maple Ridge,-75.583298,43.740589,NE,0
NY,Maple Ridge,-75.550301,43.741291,NE,0
NY,Maple Ridge,-75.548096,43.73959,NE,0
NY,Maple Ridge,-75.635796,43.79179,NE,0
NY,Maple Ridge,-75.555901,43.77039,NE,0
NY,Maple Ridge,-75.562996,43.77359000000001,NE,0
NY,Maple Ridge,-75.559998,43.73959,NE,0
NY,Maple Ridge,-75.528999,43.724991,NE,0
NY,Maple Ridge,-75.583801,43.758392,NE,0
NY,Maple Ridge,-75.549095,43.758392,NE,0
NY,Maple Ridge,-75.55819699999998,43.737789,NE,0
NY,Maple Ridge,-75.513,43.704189,NE,0
NY,Maple Ridge,-75.5075,43.715191,NE,0
NY,Maple Ridge,-75.534599,43.720291,NE,0
NY,Maple Ridge,-75.546196,43.748791,NE,0
NY,Maple Ridge,-75.568794,43.757992,NE,0
NY,Maple Ridge,-75.51909599999998,43.71109000000001,NE,0
NY,Maple Ridge,-75.573601,43.758892,NE,0
NY,Maple Ridge,-75.511299,43.696091,NE,0
NY,Maple Ridge,-75.570801,43.735291,NE,0
NY,Maple Ridge,-75.527298,43.715591,NE,0
NY,Maple Ridge,-75.58609799999998,43.79649000000001,NE,0
NY,Maple Ridge,-75.54937,43.72338900000001,NE,0
NY,Maple Ridge,-75.57899499999998,43.763191,NE,0
NY,Maple Ridge,-75.552399,43.759792,NE,0
NY,Maple Ridge,-75.582298,43.764393,NE,0
NY,Maple Ridge,-75.538399,43.724689,NE,0
NY,Maple Ridge,-75.578499,43.771492,NE,0
NY,Maple Ridge,-75.550995,43.751591,NE,0
NY,Maple Ridge,-75.545898,43.737991,NE,0
NY,Maple Ridge,-75.58359499999997,43.766792,NE,0
NY,Maple Ridge,-75.53789499999998,43.750191,NE,0
NY,Maple Ridge,-75.510101,43.71629,NE,0
NY,Maple Ridge,-75.570396,43.772892,NE,0
NY,Maple Ridge,-75.579994,43.78109,NE,0
NY,Maple Ridge,-75.56109599999998,43.778992,NE,0
NY,Maple Ridge,-75.566597,43.783291,NE,0
NY,Maple Ridge,-75.565399,43.757591,NE,0
NY,Maple Ridge,-75.531601,43.741692,NE,0
NY,Maple Ridge,-75.545097,43.76289000000001,NE,0
NY,Maple Ridge (Lowville),-75.599701,43.81879,NE,0
NY,Maple Ridge (Lowville),-75.6073,43.81319000000001,NE,0
NY,Maple Ridge (Lowville),-75.603798,43.811489,NE,0
NY,Maple Ridge (Lowville),-75.6157,43.802792,NE,0
NY,Maple Ridge (Lowville),-75.608299,43.797489,NE,0
NY,Maple Ridge (Lowville),-75.6036,43.79549,NE,0
NY,Maple Ridge (Lowville),-75.610596,43.78389,NE,0
NY,Maple Ridge (Lowville),-75.626999,43.808491,NE,0
NY,Maple Ridge (Lowville),-75.599396,43.808392,NE,0
NY,Maple Ridge (Lowville),-75.627296,43.796989,NE,0
NY,Maple Ridge (Lowville),-75.588699,43.809891,NE,0
NY,Maple Ridge (Lowville),-75.6082,43.805492,NE,0
NY,Maple Ridge (Lowville),-75.653595,43.808189,NE,0
NY,Maple Ridge (Lowville),-75.648399,43.793991,NE,0
NY,Maple Ridge (Lowville),-75.61709599999998,43.785492,NE,0
NY,Maple Ridge (Lowville),-75.621597,43.79549,NE,0
NY,Maple Ridge (Lowville),-75.658401,43.810989,NE,0
NY,Maple Ridge (Lowville),-75.636696,43.80909000000001,NE,0
NY,Maple Ridge (Lowville),-75.620201,43.822189,NE,0
NY,Maple Ridge (Lowville),-75.643196,43.805492,NE,0
NY,Maple Ridge (Lowville),-75.605202,43.802891,NE,0
NY,Maple Ridge (Lowville),-75.618301,43.779591,NE,0
NY,Maple Ridge (Lowville),-75.62559499999998,43.781693,NE,0
NY,Maple Ridge (Lowville),-75.647499,43.806393,NE,0
NY,Maple Ridge (Lowville),-75.614899,43.809391,NE,0
NY,Maple Ridge (Lowville),-75.630798,43.82019,NE,0
NY,Maple Ridge (Lowville),-75.6129,43.801792,NE,0
NY,Maple Ridge (Lowville),-75.639595,43.82859000000001,NE,0
NY,Maple Ridge (Lowville),-75.606094,43.82859000000001,NE,0
NY,Maple Ridge (Lowville),-75.613098,43.775593,NE,0
NY,Maple Ridge (Lowville),-75.667099,43.81749,NE,0
NY,Maple Ridge (Lowville),-75.59189599999998,43.806091,NE,0
NY,Maple Ridge (Lowville),-75.634201,43.827789,NE,0
NY,Maple Ridge (Lowville),-75.621101,43.80529,NE,0
NY,Maple Ridge (Lowville),-75.596199,43.82629,NE,0
NY,Maple Ridge (Lowville),-75.629395,43.785591,NE,0
NY,Maple Ridge (Lowville),-75.650398,43.807491,NE,0
NY,Maple Ridge (Lowville),-75.610001,43.82999,NE,0
NY,Maple Ridge (Lowville),-75.62829599999998,43.81889,NE,0
NY,Maple Ridge (Lowville),-75.588799,43.803989,NE,0
NY,Maple Ridge (Lowville),-75.679199,43.811691,NE,0
NY,Maple Ridge (Lowville),-75.617195,43.82078900000001,NE,0
NY,Maple Ridge (Lowville),-75.64299799999998,43.780792,NE,0
NY,Maple Ridge (Lowville),-75.590797,43.82029,NE,0
NY,Maple Ridge (Lowville),-75.637398,43.797291,NE,0
NY,Maple Ridge (Lowville),-75.60219599999998,43.78669,NE,0
NY,Maple Ridge (Lowville),-75.635597,43.821491,NE,0
NY,Maple Ridge (Lowville),-75.6409,43.837292,NE,0
NY,Maple Ridge (Lowville),-75.609398,43.814793,NE,0
NY,Maple Ridge (Lowville),-75.603195,43.827591,NE,0
NY,Maple Ridge (Lowville),-75.612701,43.831093,NE,0
NY,Maple Ridge (Lowville),-75.641296,43.810291,NE,0
NY,Maple Ridge (Lowville),-75.601799,43.801689,NE,0
NY,Maple Ridge (Lowville),-75.594398,43.80069,NE,0
NY,Maple Ridge (Lowville),-75.629997,43.80349,NE,0
NY,Maple Ridge (Lowville),-75.644402,43.79229,NE,0
NY,Maple Ridge (Lowville),-75.6633,43.804691,NE,0
NY,Maple Ridge (Lowville),-75.666,43.80579,NE,0
NY,Maple Ridge (Lowville),-75.633995,43.80619,NE,0
NY,Maple Ridge (Lowville),-75.594101,43.790691,NE,0
NY,Maple Ridge (Lowville),-75.602898,43.82019,NE,0
NY,Maple Ridge (Lowville),-75.568596,43.795292,NE,0
NY,Maple Ridge (Lowville),-75.61529499999997,43.77779,NE,0
NY,Maple Ridge (Lowville),-75.655884,43.809654,NE,0
NY,Maple Ridge (Lowville),-75.618752,43.803848,NE,0
NY,Maple Ridge (Lowville),-75.609695,43.823692,NE,0
NY,Maple Ridge (Lowville),-75.6558,43.816391,NE,0
NY,Maple Ridge (Lowville),-75.61219799999998,43.808292,NE,0
NY,Maple Ridge (Lowville),-75.624298,43.807392,NE,0
NY,Maple Ridge (Lowville),-75.614296,43.81749,NE,0
NY,Maple Ridge (Lowville),-75.640297,43.779793,NE,0
NY,Maple Ridge (Lowville),-75.611801,43.790092,NE,0
NY,Maple Ridge (Lowville),-75.601601,43.809891,NE,0
NY,Maple Ridge (Lowville),-75.597,43.792992,NE,0
NY,Maple Ridge (Lowville),-75.678101,43.80669,NE,0
NY,Maple Ridge (Lowville),-75.606796,43.822189,NE,0
NY,Maple Ridge (Lowville),-75.627602,43.825291,NE,0
NY,Maple Ridge (Lowville),-75.627747,43.79158,NE,0
NY,Maple Ridge (Lowville),-75.617897,43.81089,NE,0
NY,Maple Ridge (Lowville),-75.63029499999998,43.826492,NE,0
NY,Maple Ridge (Lowville),-75.638,43.83618900000001,NE,0
NY,Maple Ridge (Lowville),-75.6353,43.835293,NE,0
NY,Maple Ridge (Lowville),-75.6119,43.816193,NE,0
NY,Marble River,-73.922798,44.87479,NE,3
NY,Marble River,-73.91999799999998,44.94149,NE,3
NY,Marble River,-73.92229499999998,44.87249,NE,3
NY,Marble River,-73.93229699999998,44.90279,NE,3
NY,Marble River,-73.919495,44.901993,NE,3
NY,Marble River,-73.929001,44.91209,NE,3
NY,Marble River,-73.92779499999997,44.979893,NE,3
NY,Marble River,-73.971298,44.885193,NE,3
NY,Marble River,-73.941498,44.97599,NE,3
NY,Marble River,-73.92319499999998,44.923592,NE,3
NY,Marble River,-73.938896,44.961693,NE,3
NY,Marble River,-73.96399699999998,44.92189000000001,NE,3
NY,Marble River,-73.92669699999998,44.946293,NE,3
NY,Marble River,-73.946495,44.871792,NE,3
NY,Marble River,-73.907501,44.896091,NE,3
NY,Marble River,-73.9617,44.981392,NE,3
NY,Marble River,-73.9403,44.901291,NE,3
NY,Marble River,-73.97829399999998,44.882393,NE,3
NY,Marble River,-73.921295,44.944092,NE,3
NY,Marble River,-73.958199,44.879593,NE,3
NY,Marble River,-73.903801,44.991592,NE,3
NY,Marble River,-73.942696,44.903992,NE,3
NY,Marble River,-73.920296,44.906693,NE,3
NY,Marble River,-73.924095,44.921291,NE,3
NY,Marble River,-73.929001,44.96389,NE,3
NY,Marble River,-73.950294,44.887592,NE,3
NY,Marble River,-73.917702,44.978889,NE,3
NY,Marble River,-73.9245,44.88649,NE,3
NY,Marble River,-73.940498,44.884293,NE,3
NY,Marble River,-73.9608,44.918491,NE,3
NY,Marble River,-73.936295,44.931591,NE,3
NY,Marble River,-73.925095,44.88229000000001,NE,3
NY,Marble River,-73.922195,44.99789000000001,NE,3
NY,Marble River,-73.912697,44.998489,NE,3
NY,Marble River,-73.939499,44.87289000000001,NE,3
NY,Marble River,-73.971497,44.96118900000001,NE,3
NY,Marble River,-73.98919699999998,44.875389,NE,3
NY,Marble River,-73.946899,44.86829,NE,3
NY,Marble River,-73.96219599999998,44.931492,NE,3
NY,Marble River,-73.940201,44.973892,NE,3
NY,Marble River,-73.929497,44.976192,NE,3
NY,Marble River,-73.951195,44.903393,NE,3
NY,Marble River,-73.97829399999998,44.885693,NE,3
NY,Marble River,-73.940201,44.868893,NE,3
NY,Marble River,-73.940895,44.89349,NE,3
NY,Marble River,-73.91179699999998,44.99559,NE,3
NY,Marble River,-73.9543,44.929092,NE,3
NY,Marble River,-73.968399,44.973392,NE,3
NY,Marble River,-73.95929699999998,44.915489,NE,3
NY,Marble River,-73.95079799999998,44.910591,NE,3
NY,Marble River,-73.925598,44.97179000000001,NE,3
NY,Marble River,-73.965195,44.954693,NE,3
NY,Marble River,-73.94609799999998,44.94899,NE,3
NY,Marble River,-73.952301,44.935989,NE,3
NY,Marble River,-73.93539399999997,44.914089,NE,3
NY,Marble River,-73.923401,44.926491,NE,3
NY,Marble River,-73.923996,44.986691,NE,3
NY,Marble River,-73.922798,44.929592,NE,3
NY,Marble River,-73.95779399999998,44.939793,NE,3
NY,Marble River,-73.913795,44.988293,NE,3
NY,Marble River,-73.941399,44.98069,NE,3
NY,Marble River,-73.941597,44.88839,NE,3
NY,Marble River,-73.9468,44.933189,NE,3
NY,Marble River,-73.90349599999998,44.995792,NE,3
NY,Marble River,-73.94899699999998,44.900692,NE,3
NY,Marble River,-73.913399,44.895592,NE,3
NY,Marble River,-73.9347,44.926792,NE,3
NY,Marble River,-73.958694,44.911991,NE,3
NY,Marble River,-73.925697,44.983089,NE,3
NY,Marble River,-73.938797,44.911091,NE,3
MA,Mark Richey Woodworking,-70.88069899999998,42.802891,NE,0
ME,Mars Hill,-67.8106,46.54509,NE,1
ME,Mars Hill,-67.80764,46.561195,NE,1
ME,Mars Hill,-67.813286,46.520611,NE,1
ME,Mars Hill,-67.808144,46.556141,NE,1
ME,Mars Hill,-67.808502,46.552189,NE,1
ME,Mars Hill,-67.81289699999999,46.540291,NE,1
ME,Mars Hill,-67.81390400000001,46.519089,NE,1
ME,Mars Hill,-67.813599,46.538792,NE,1
ME,Mars Hill,-67.807732,46.567699,NE,1
ME,Mars Hill,-67.808899,46.548691,NE,1
ME,Mars Hill,-67.80761700000001,46.56619600000001,NE,1
ME,Mars Hill,-67.814301,46.525688,NE,1
ME,Mars Hill,-67.814903,46.535091,NE,1
ME,Mars Hill,-67.809898,46.546589,NE,1
ME,Mars Hill,-67.813797,46.528992,NE,1
ME,Mars Hill,-67.80806700000001,46.554146,NE,1
ME,Mars Hill,-67.810997,46.543491,NE,1
ME,Mars Hill,-67.807014,46.559502,NE,1
ME,Mars Hill,-67.816086,46.532803,NE,1
ME,Mars Hill,-67.811798,46.541988,NE,1
ME,Mars Hill,-67.813698,46.52319,NE,1
ME,Mars Hill,-67.80722800000001,46.557858,NE,1
ME,Mars Hill,-67.807648,46.564381,NE,1
ME,Mars Hill,-67.816902,46.530891,NE,1
ME,Mars Hill,-67.813553,46.536983,NE,1
ME,Mars Hill,-67.8078,46.549992,NE,1
ME,Mars Hill,-67.808037,46.562889,NE,1
ME,Mars Hill,-67.815201,46.527592,NE,1
NY,Marsh Hill,-77.495834,42.169941,NE,0
NY,Marsh Hill,-77.514656,42.172852,NE,0
NY,Marsh Hill,-77.505524,42.182682,NE,0
NY,Marsh Hill,-77.49543,42.181431,NE,0
NY,Marsh Hill,-77.499229,42.177963,NE,0
NY,Marsh Hill,-77.51244399999999,42.183773,NE,0
NY,Marsh Hill,-77.520576,42.179512,NE,0
NY,Marsh Hill,-77.495827,42.172871,NE,0
NY,Marsh Hill,-77.497574,42.175323,NE,0
NY,Marsh Hill,-77.508675,42.17688,NE,0
MA,Massachusetts Maritime Academy,-70.623802,41.74139,NE,0
MA,Massachusetts National Cemetery,-70.584602,41.673092,NE,0
MA,Mount St. Mary's Abbey,-71.3937,42.042492,NE,0
MA,Mount Wachusett Wind Farm,-71.9842,42.588593,NE,0
MA,Mount Wachusett Wind Farm,-71.983597,42.590691,NE,0
NH,Mountain View Grand,-71.59030200000002,44.398792,NE,1
NY,Munnsville,-75.570099,42.918991,NE,0
NY,Munnsville,-75.541,42.947392,NE,0
NY,Munnsville,-75.562599,42.952991,NE,0
NY,Munnsville,-75.566299,42.946293,NE,0
NY,Munnsville,-75.565399,42.904591,NE,0
NY,Munnsville,-75.563698,42.917992,NE,0
NY,Munnsville,-75.574699,42.902493,NE,0
NY,Munnsville,-75.573898,42.915592,NE,0
NY,Munnsville,-75.5634,42.93959,NE,0
NY,Munnsville,-75.566696,42.91589000000001,NE,0
NY,Munnsville,-75.53699499999998,42.950691,NE,0
NY,Munnsville,-75.575699,42.897491,NE,0
NY,Munnsville,-75.569801,42.908489,NE,0
NY,Munnsville,-75.535599,42.924492,NE,0
NY,Munnsville,-75.562096,42.948589,NE,0
NY,Munnsville,-75.539795,42.953991,NE,0
NY,Munnsville,-75.562599,42.912689,NE,0
NY,Munnsville,-75.570396,42.897491,NE,0
NY,Munnsville,-75.535797,42.928192,NE,0
NY,Munnsville,-75.54259499999998,42.951389,NE,0
NY,Munnsville,-75.5411,42.929592,NE,0
NY,Munnsville,-75.566895,42.942593,NE,0
NY,Munnsville,-75.568901,42.89999,NE,0
MA,Nantucket High School,-70.097771,41.272144,NE,0
MA,Nature's Classroom Wind Turbine,-72.003899,42.110889,NE,0
NY,New York State Thruway Authority,-79.5868,42.339123,NE,0
NY,New York State Thruway Authority,-79.309692,42.460438,NE,0
NY,New York State Thruway Authority,-78.95742800000002,42.658024,NE,0
NY,New York State Thruway Authority,-79.74047900000002,42.26545,NE,0
MA,No Fossil Fuel - Kingston,-70.725098,41.971592,NE,0
MA,No Fossil Fuel - Kingston,-70.730202,41.970592,NE,0
MA,No Fossil Fuel - Kingston,-70.725601,41.974091,NE,0
NY,Noble Altona,-73.636597,44.82769,NE,3
NY,Noble Altona,-73.6306,44.81049,NE,3
NY,Noble Altona,-73.660698,44.82959,NE,3
NY,Noble Altona,-73.648399,44.830391,NE,3
NY,Noble Altona,-73.65570100000002,44.808792,NE,3
NY,Noble Altona,-73.641396,44.804592,NE,3
NY,Noble Altona,-73.653801,44.815491,NE,3
NY,Noble Altona,-73.657799,44.811192,NE,3
NY,Noble Altona,-73.6464,44.82159,NE,3
NY,Noble Altona,-73.679901,44.828293,NE,3
NY,Noble Altona,-73.64209699999998,44.82169,NE,3
NY,Noble Altona,-73.651299,44.82449,NE,3
NY,Noble Altona,-73.665901,44.83849,NE,3
NY,Noble Altona,-73.641899,44.827892,NE,3
NY,Noble Altona,-73.649498,44.81329,NE,3
NY,Noble Altona,-73.6558,44.817989,NE,3
NY,Noble Altona,-73.6595,44.817093,NE,3
NY,Noble Altona,-73.638397,44.806492,NE,3
NY,Noble Altona,-73.642799,44.814991,NE,3
NY,Noble Altona,-73.656898,44.830791,NE,3
NY,Noble Altona,-73.652298,44.82729000000001,NE,3
NY,Noble Altona,-73.630798,44.804592,NE,3
NY,Noble Altona,-73.675598,44.835892,NE,3
NY,Noble Altona,-73.63969399999998,44.839592,NE,3
NY,Noble Altona,-73.638695,44.811291,NE,3
NY,Noble Altona,-73.669701,44.841991,NE,3
NY,Noble Altona,-73.668297,44.83149,NE,3
NY,Noble Altona,-73.648399,44.817989,NE,3
NY,Noble Altona,-73.650902,44.82159,NE,3
NY,Noble Altona,-73.634697,44.84359,NE,3
NY,Noble Altona,-73.639397,44.823692,NE,3
NY,Noble Altona,-73.64969599999998,44.805691,NE,3
NY,Noble Altona,-73.64409599999998,44.830891,NE,3
NY,Noble Altona,-73.640999,44.80899,NE,3
NY,Noble Altona,-73.651901,44.831692,NE,3
NY,Noble Altona,-73.652,44.810791,NE,3
NY,Noble Altona,-73.671898,44.83799000000001,NE,3
NY,Noble Altona,-73.634598,44.813492,NE,3
NY,Noble Altona,-73.636101,44.81609,NE,3
NY,Noble Altona,-73.668198,44.819893,NE,3
NY,Noble Altona,-73.637199,44.82078900000001,NE,3
NY,Noble Altona,-73.645699,44.812592,NE,3
NY,Noble Altona,-73.647995,44.82729000000001,NE,3
NY,Noble Altona,-73.66529799999998,44.828793,NE,3
NY,Noble Altona,-73.6717,44.823792,NE,3
NY,Noble Altona,-73.64679699999998,44.815392,NE,3
NY,Noble Altona,-73.659401,44.805389,NE,3
NY,Noble Altona,-73.628197,44.80769,NE,3
NY,Noble Altona,-73.657501,44.833591,NE,3
NY,Noble Altona,-73.64409599999998,44.80669,NE,3
NY,Noble Altona,-73.667099,44.817192,NE,3
NY,Noble Altona,-73.65969799999998,44.83749,NE,3
NY,Noble Altona,-73.639801,44.81879,NE,3
NY,Noble Altona,-73.638901,44.814091,NE,3
NY,Noble Altona,-73.646996,44.824291,NE,3
NY,Noble Altona,-73.6343,44.83939,NE,3
NY,Noble Altona,-73.658501,44.814289,NE,3
NY,Noble Altona,-73.6455,44.809391,NE,3
NY,Noble Altona,-73.638,44.842091,NE,3
NY,Noble Altona,-73.629601,44.801689,NE,3
NY,Noble Altona,-73.64589699999998,44.804092,NE,3
NY,Noble Altona,-73.660698,44.808689,NE,3
NY,Noble Altona,-73.6437,44.818092,NE,3
NY,Noble Altona,-73.675896,44.829391,NE,3
NY,Noble Altona,-73.6269,44.80439000000001,NE,3
NY,Noble Bliss,-78.278999,42.54829,NE,0
NY,Noble Bliss,-78.257698,42.56599,NE,0
NY,Noble Bliss,-78.216995,42.540894,NE,0
NY,Noble Bliss,-78.253395,42.537292,NE,0
NY,Noble Bliss,-78.28139499999997,42.542793,NE,0
NY,Noble Bliss,-78.283699,42.524994,NE,0
NY,Noble Bliss,-78.234398,42.551891,NE,0
NY,Noble Bliss,-78.241997,42.574291,NE,0
NY,Noble Bliss,-78.267197,42.556992,NE,0
NY,Noble Bliss,-78.278999,42.552692,NE,0
NY,Noble Bliss,-78.2397,42.560093,NE,0
NY,Noble Bliss,-78.254097,42.559193,NE,0
NY,Noble Bliss,-78.2584,42.536591,NE,0
NY,Noble Bliss,-78.243095,42.571392,NE,0
NY,Noble Bliss,-78.2826,42.549492,NE,0
NY,Noble Bliss,-78.260796,42.534393,NE,0
NY,Noble Bliss,-78.305397,42.528893,NE,0
NY,Noble Bliss,-78.30439799999998,42.54129,NE,0
NY,Noble Bliss,-78.2771,42.526791,NE,0
NY,Noble Bliss,-78.23539699999998,42.523193,NE,0
NY,Noble Bliss,-78.279999,42.524792,NE,0
NY,Noble Bliss,-78.253197,42.528793,NE,0
NY,Noble Bliss,-78.25569899999998,42.534492,NE,0
NY,Noble Bliss,-78.230293,42.566593,NE,0
NY,Noble Bliss,-78.256096,42.531094,NE,0
NY,Noble Bliss,-78.26909599999998,42.561691,NE,0
NY,Noble Bliss,-78.247299,42.54129,NE,0
NY,Noble Bliss,-78.305099,42.537594,NE,0
NY,Noble Bliss,-78.235199,42.564991,NE,0
NY,Noble Bliss,-78.2547,42.563591,NE,0
NY,Noble Bliss,-78.275696,42.556091,NE,0
NY,Noble Bliss,-78.303398,42.525391,NE,0
NY,Noble Bliss,-78.239098,42.540192,NE,0
NY,Noble Bliss,-78.23159799999998,42.562092,NE,0
NY,Noble Bliss,-78.23309300000003,42.547993,NE,0
NY,Noble Bliss,-78.245796,42.56039000000001,NE,0
NY,Noble Bliss,-78.288895,42.538094,NE,0
NY,Noble Bliss,-78.27469599999998,42.529091,NE,0
NY,Noble Bliss,-78.230698,42.525391,NE,0
NY,Noble Bliss,-78.247093,42.550991,NE,0
NY,Noble Bliss,-78.21719399999998,42.537991,NE,0
NY,Noble Bliss,-78.305,42.53429000000001,NE,0
NY,Noble Bliss,-78.27879300000002,42.544891,NE,0
NY,Noble Bliss,-78.246895,42.544292,NE,0
NY,Noble Bliss,-78.26179499999998,42.563293,NE,0
NY,Noble Bliss,-78.259499,42.558891,NE,0
NY,Noble Bliss,-78.291595,42.54129,NE,0
NY,Noble Bliss,-78.227997,42.536591,NE,0
NY,Noble Bliss,-78.231796,42.545193,NE,0
NY,Noble Bliss,-78.259598,42.52869000000001,NE,0
NY,Noble Bliss,-78.288795,42.528591,NE,0
NY,Noble Bliss,-78.243599,42.536194,NE,0
NY,Noble Bliss,-78.287399,42.525291,NE,0
NY,Noble Bliss,-78.227699,42.540791,NE,0
NY,Noble Bliss,-78.282898,42.527691,NE,0
NY,Noble Bliss,-78.237999,42.535892,NE,0
NY,Noble Bliss,-78.240997,42.564091,NE,0
NY,Noble Bliss,-78.241196,42.546593,NE,0
NY,Noble Bliss,-78.242599,42.541592,NE,0
NY,Noble Bliss,-78.256699,42.561192,NE,0
NY,Noble Bliss,-78.238098,42.574791,NE,0
NY,Noble Bliss,-78.254898,42.522991,NE,0
NY,Noble Bliss,-78.284798,42.540791,NE,0
NY,Noble Bliss,-78.23679399999997,42.572193,NE,0
NY,Noble Bliss,-78.23869300000001,42.550091,NE,0
NY,Noble Bliss,-78.27959399999997,42.529194,NE,0
NY,Noble Bliss,-78.25349399999998,42.571392,NE,0
NY,Noble Chateaugay,-74.027,44.903091,NE,3
NY,Noble Chateaugay,-74.06779499999998,44.912491,NE,3
NY,Noble Chateaugay,-74.014099,44.88129,NE,3
NY,Noble Chateaugay,-74.065399,44.89679,NE,3
NY,Noble Chateaugay,-74.019699,44.903393,NE,3
NY,Noble Chateaugay,-74.020195,44.890091,NE,3
NY,Noble Chateaugay,-74.065895,44.918991,NE,3
NY,Noble Chateaugay,-74.028999,44.87619,NE,3
NY,Noble Chateaugay,-74.020401,44.911289,NE,3
NY,Noble Chateaugay,-74.024498,44.92469000000001,NE,3
NY,Noble Chateaugay,-74.042,44.873093,NE,3
NY,Noble Chateaugay,-74.03409599999998,44.88829000000001,NE,3
NY,Noble Chateaugay,-74.049194,44.885391,NE,3
NY,Noble Chateaugay,-74.035797,44.920391,NE,3
NY,Noble Chateaugay,-74.008896,44.881092,NE,3
NY,Noble Chateaugay,-74.066795,44.921989,NE,3
NY,Noble Chateaugay,-74.053299,44.886089,NE,3
NY,Noble Chateaugay,-74.061295,44.923389,NE,3
NY,Noble Chateaugay,-74.041801,44.92569,NE,3
NY,Noble Chateaugay,-74.025101,44.927391,NE,3
NY,Noble Chateaugay,-74.015701,44.90469,NE,3
NY,Noble Chateaugay,-74.044495,44.914791,NE,3
NY,Noble Chateaugay,-74.03679699999998,44.92329,NE,3
NY,Noble Chateaugay,-74.058701,44.917492,NE,3
NY,Noble Chateaugay,-74.065697,44.882992,NE,3
NY,Noble Chateaugay,-74.023201,44.901093,NE,3
NY,Noble Chateaugay,-74.015999,44.897591,NE,3
NY,Noble Chateaugay,-74.02379599999998,44.921692,NE,3
NY,Noble Chateaugay,-74.033699,44.874992,NE,3
NY,Noble Chateaugay,-74.016296,44.90889,NE,3
NY,Noble Chateaugay,-74.070198,44.884892,NE,3
NY,Noble Chateaugay,-74.018394,44.919189,NE,3
NY,Noble Chateaugay,-74.019997,44.873989,NE,3
NY,Noble Chateaugay,-74.029701,44.891689,NE,3
NY,Noble Chateaugay,-74.025398,44.877689,NE,3
NY,Noble Chateaugay,-74.031898,44.880192,NE,3
NY,Noble Chateaugay,-74.026398,44.880692,NE,3
NY,Noble Chateaugay,-74.0121,44.874191,NE,3
NY,Noble Chateaugay,-74.045197,44.918491,NE,3
NY,Noble Chateaugay,-74.041,44.881493,NE,3
NY,Noble Chateaugay,-74.024796,44.891293,NE,3
NY,Noble Chateaugay,-74.0662,44.899792,NE,3
NY,Noble Chateaugay,-74.06109599999998,44.914291,NE,3
NY,Noble Chateaugay,-74.02649699999998,44.898792,NE,3
NY,Noble Chateaugay,-74.02109499999997,44.877392,NE,3
NY,Noble Chateaugay,-74.036697,44.886192,NE,3
NY,Noble Chateaugay,-74.027596,44.888592,NE,3
NY,Noble Chateaugay,-74.022896,44.918491,NE,3
NY,Noble Chateaugay,-74.055901,44.915291,NE,3
NY,Noble Chateaugay,-74.012001,44.903191,NE,3
NY,Noble Chateaugay,-74.016602,44.87859,NE,3
NY,Noble Chateaugay,-74.021301,44.89809,NE,3
NY,Noble Chateaugay,-74.023499,44.909191,NE,3
NY,Noble Chateaugay,-74.03479,44.882301,NE,3
NY,Noble Chateaugay,-74.016602,44.900593,NE,3
NY,Noble Chateaugay,-74.052299,44.891792,NE,3
NY,Noble Chateaugay,-74.064095,44.91119000000001,NE,3
NY,Noble Chateaugay,-74.064598,44.916191,NE,3
NY,Noble Chateaugay,-74.009201,44.877392,NE,3
NY,Noble Chateaugay,-74.057999,44.911892,NE,3
NY,Noble Chateaugay,-74.025902,44.873192,NE,3
NY,Noble Chateaugay,-74.0439,44.89119,NE,3
NY,Noble Chateaugay,-74.01799799999998,44.922791,NE,3
NY,Noble Chateaugay,-74.014,44.911892,NE,3
NY,Noble Chateaugay,-74.060898,44.920292,NE,3
NY,Noble Chateaugay,-74.019699,44.881191,NE,3
NY,Noble Chateaugay,-74.038696,44.87619,NE,3
NY,Noble Chateaugay,-74.03699499999998,44.879192,NE,3
NY,Noble Chateaugay,-74.055801,44.905491,NE,3
NY,Noble Chateaugay,-74.039795,44.889591,NE,3
NY,Noble Chateaugay,-74.04259499999998,44.921989,NE,3
NY,Noble Clinton,-73.980301,44.953892,NE,3
NY,Noble Clinton,-73.992798,44.902592,NE,3
NY,Noble Clinton,-74.0019,44.927692,NE,3
NY,Noble Clinton,-74.0037,44.89069,NE,3
NY,Noble Clinton,-74.00039699999998,44.94289000000001,NE,3
NY,Noble Clinton,-73.981895,44.921791,NE,3
NY,Noble Clinton,-73.998398,44.92989,NE,3
NY,Noble Clinton,-73.986496,44.943192,NE,3
NY,Noble Clinton,-74.005898,44.92889,NE,3
NY,Noble Clinton,-74.0047,44.94059,NE,3
NY,Noble Clinton,-74.006294,44.92609,NE,3
NY,Noble Clinton,-73.984299,44.89579000000001,NE,3
NY,Noble Clinton,-73.989899,44.931591,NE,3
NY,Noble Clinton,-73.990196,44.937992,NE,3
NY,Noble Clinton,-73.98249799999998,44.950691,NE,3
NY,Noble Clinton,-73.994598,44.909492,NE,3
NY,Noble Clinton,-73.989494,44.924892,NE,3
NY,Noble Clinton,-73.983498,44.913193,NE,3
NY,Noble Clinton,-73.998001,44.919689,NE,3
NY,Noble Clinton,-73.98739599999998,44.921391,NE,3
NY,Noble Clinton,-73.995499,44.948193,NE,3
NY,Noble Clinton,-74.002296,44.90089,NE,3
NY,Noble Clinton,-73.989296,44.927891,NE,3
NY,Noble Clinton,-73.98539699999998,44.927292,NE,3
NY,Noble Clinton,-73.985497,44.89909,NE,3
NY,Noble Clinton,-74.0037,44.908092,NE,3
NY,Noble Clinton,-74.008301,44.914692,NE,3
NY,Noble Clinton,-73.994202,44.905392,NE,3
NY,Noble Clinton,-74.000999,44.90609,NE,3
NY,Noble Clinton,-74.007797,44.923492,NE,3
NY,Noble Clinton,-73.993599,44.951591,NE,3
NY,Noble Clinton,-73.990196,44.94849,NE,3
NY,Noble Clinton,-73.983696,44.917591,NE,3
NY,Noble Clinton,-73.99479699999998,44.895493,NE,3
NY,Noble Clinton,-73.998901,44.890491,NE,3
NY,Noble Clinton,-74.004295,44.894291,NE,3
NY,Noble Clinton,-74.010696,44.925491,NE,3
NY,Noble Clinton,-73.985001,44.94709,NE,3
NY,Noble Clinton,-73.980202,44.947891,NE,3
NY,Noble Clinton,-74.003799,44.937492,NE,3
NY,Noble Clinton,-73.986595,44.930092,NE,3
NY,Noble Clinton,-73.998795,44.93779,NE,3
NY,Noble Clinton,-73.978996,44.893192,NE,3
NY,Noble Clinton,-73.99859599999998,44.92239,NE,3
NY,Noble Clinton,-74.007301,44.905293,NE,3
NY,Noble Clinton,-74.005997,44.95269,NE,3
NY,Noble Clinton,-73.997498,44.907391,NE,3
NY,Noble Clinton,-73.987297,44.951389,NE,3
NY,Noble Clinton,-73.969894,44.894093,NE,3
NY,Noble Clinton,-74.0103,44.91729,NE,3
NY,Noble Clinton,-74.001595,44.94759000000001,NE,3
NY,Noble Clinton,-74.005096,44.91679,NE,3
NY,Noble Clinton,-74.009895,44.920692,NE,3
NY,Noble Clinton,-73.985802,44.910591,NE,3
NY,Noble Clinton,-73.974602,44.893291,NE,3
NY,Noble Clinton,-74.00569899999998,44.902691,NE,3
NY,Noble Clinton,-73.974602,44.953293,NE,3
NY,Noble Clinton,-73.976295,44.895889,NE,3
NY,Noble Clinton,-73.98249799999998,44.944092,NE,3
NY,Noble Clinton,-73.999496,44.903393,NE,3
NY,Noble Clinton,-74.005798,44.897793,NE,3
NY,Noble Clinton,-73.98449699999998,44.939091,NE,3
NY,Noble Clinton,-73.999199,44.894192,NE,3
NY,Noble Clinton,-73.9795,44.897892,NE,3
NY,Noble Clinton,-74.000099,44.925091,NE,3
NY,Noble Clinton,-74.005798,44.946392,NE,3
NY,Noble Clinton,-73.980797,44.900791,NE,3
NY,Noble Ellenburg,-73.9702,44.871693,NE,3
NY,Noble Ellenburg,-73.986198,44.86459,NE,3
NY,Noble Ellenburg,-73.965599,44.877491,NE,3
NY,Noble Ellenburg,-73.99009699999998,44.866592,NE,3
NY,Noble Ellenburg,-73.952095,44.866692,NE,3
NY,Noble Ellenburg,-73.9935,44.869091,NE,3
NY,Noble Ellenburg,-73.934601,44.87019,NE,3
NY,Noble Ellenburg,-73.999001,44.87479,NE,3
NY,Noble Ellenburg,-73.939201,44.864891,NE,3
NY,Noble Ellenburg,-73.999802,44.88328900000001,NE,3
NY,Noble Ellenburg,-73.962502,44.862892,NE,3
NY,Noble Ellenburg,-74.003197,44.881592,NE,3
NY,Noble Ellenburg,-73.969101,44.879292,NE,3
NY,Noble Ellenburg,-73.963898,44.866192,NE,3
NY,Noble Ellenburg,-73.996498,44.881691,NE,3
NY,Noble Ellenburg,-74.003899,44.862991,NE,3
NY,Noble Ellenburg,-73.932999,44.86729,NE,3
NY,Noble Ellenburg,-74.003098,44.85989,NE,3
NY,Noble Ellenburg,-73.961899,44.86869,NE,3
NY,Noble Ellenburg,-73.955894,44.865292,NE,3
NY,Noble Ellenburg,-74.003601,44.869091,NE,3
NY,Noble Ellenburg,-73.971001,44.862591,NE,3
NY,Noble Ellenburg,-73.931,44.87149,NE,3
NY,Noble Ellenburg,-73.984001,44.862289,NE,3
NY,Noble Ellenburg,-73.979401,44.864693,NE,3
NY,Noble Ellenburg,-73.9981,44.863491,NE,3
NY,Noble Ellenburg,-73.989098,44.87149,NE,3
NY,Noble Ellenburg,-73.999802,44.878292,NE,3
NY,Noble Ellenburg,-74.004097,44.878693,NE,3
NY,Noble Ellenburg,-73.925995,44.86499,NE,3
NY,Noble Ellenburg,-73.979996,44.861992,NE,3
NY,Noble Ellenburg,-73.977997,44.86869,NE,3
NY,Noble Ellenburg,-73.989998,44.863792,NE,3
NY,Noble Ellenburg,-73.930695,44.86459,NE,3
NY,Noble Ellenburg,-73.978798,44.875893,NE,3
NY,Noble Ellenburg,-73.962097,44.87199,NE,3
NY,Noble Ellenburg,-73.972099,44.881992,NE,3
NY,Noble Ellenburg,-73.9655,44.869789,NE,3
NY,Noble Ellenburg,-73.983299,44.867592,NE,3
NY,Noble Ellenburg,-73.9478,44.862991,NE,3
NY,Noble Ellenburg,-73.995399,44.876091,NE,3
NY,Noble Ellenburg,-74.003899,44.86599,NE,3
NY,Noble Ellenburg,-73.945198,44.865589,NE,3
NY,Noble Ellenburg,-73.929695,44.86879,NE,3
NY,Noble Ellenburg,-73.952095,44.862492,NE,3
NY,Noble Ellenburg,-73.967896,44.88269,NE,3
NY,Noble Ellenburg,-73.958298,44.862991,NE,3
NY,Noble Ellenburg,-74.003799,44.87569000000001,NE,3
NY,Noble Ellenburg,-73.986099,44.869591,NE,3
NY,Noble Ellenburg,-73.97429699999998,44.870792,NE,3
NY,Noble Ellenburg,-73.995399,44.878891,NE,3
NY,Noble Ellenburg,-73.942596,44.863392,NE,3
NY,Noble Ellenburg,-73.975296,44.862392,NE,3
NY,Noble Ellenburg,-73.993996,44.883991,NE,3
NY,Noble Wethersfield,-78.255394,42.624092,NE,0
NY,Noble Wethersfield,-78.264595,42.609291,NE,0
NY,Noble Wethersfield,-78.278297,42.62899,NE,0
NY,Noble Wethersfield,-78.2612,42.662392,NE,0
NY,Noble Wethersfield,-78.269997,42.610893,NE,0
NY,Noble Wethersfield,-78.28899399999997,42.594692,NE,0
NY,Noble Wethersfield,-78.286194,42.593193,NE,0
NY,Noble Wethersfield,-78.21979499999998,42.667793,NE,0
NY,Noble Wethersfield,-78.292397,42.610592,NE,0
NY,Noble Wethersfield,-78.24789399999997,42.616291,NE,0
NY,Noble Wethersfield,-78.2733,42.590393,NE,0
NY,Noble Wethersfield,-78.271996,42.594994,NE,0
NY,Noble Wethersfield,-78.264595,42.613693,NE,0
NY,Noble Wethersfield,-78.265297,42.611591,NE,0
NY,Noble Wethersfield,-78.2686,42.603493,NE,0
NY,Noble Wethersfield,-78.29499799999998,42.619091,NE,0
NY,Noble Wethersfield,-78.2248,42.666992,NE,0
NY,Noble Wethersfield,-78.298096,42.60379,NE,0
NY,Noble Wethersfield,-78.272995,42.588192,NE,0
NY,Noble Wethersfield,-78.240196,42.609192,NE,0
NY,Noble Wethersfield,-78.240494,42.659893,NE,0
NY,Noble Wethersfield,-78.244293,42.602192,NE,0
NY,Noble Wethersfield,-78.291,42.604794,NE,0
NY,Noble Wethersfield,-78.2584,42.659393,NE,0
NY,Noble Wethersfield,-78.29169499999998,42.606991,NE,0
NY,Noble Wethersfield,-78.2873,42.611691,NE,0
NY,Noble Wethersfield,-78.306198,42.62059,NE,0
NY,Noble Wethersfield,-78.231697,42.612392,NE,0
NY,Noble Wethersfield,-78.244095,42.664391,NE,0
NY,Noble Wethersfield,-78.245094,42.659893,NE,0
NY,Noble Wethersfield,-78.232399,42.670193,NE,0
NY,Noble Wethersfield,-78.2435,42.622391,NE,0
NY,Noble Wethersfield,-78.2565,42.654392,NE,0
NY,Noble Wethersfield,-78.2948,42.616493,NE,0
NY,Noble Wethersfield,-78.24329399999998,42.617191,NE,0
NY,Noble Wethersfield,-78.277695,42.632191,NE,0
NY,Noble Wethersfield,-78.297798,42.601593,NE,0
NY,Noble Wethersfield,-78.237,42.668892,NE,0
NY,Noble Wethersfield,-78.238495,42.664494,NE,0
NY,Noble Wethersfield,-78.242897,42.630192,NE,0
NY,Noble Wethersfield,-78.272995,42.601292,NE,0
NY,Noble Wethersfield,-78.300697,42.620491,NE,0
NY,Noble Wethersfield,-78.214996,42.672592,NE,0
NY,Noble Wethersfield,-78.29459399999998,42.61359,NE,0
NY,Noble Wethersfield,-78.267494,42.605892,NE,0
NY,Noble Wethersfield,-78.235298,42.63269,NE,0
NY,Noble Wethersfield,-78.271996,42.592793,NE,0
NY,Noble Wethersfield,-78.245094,42.608391,NE,0
NY,Noble Wethersfield,-78.24799300000002,42.64719,NE,0
NY,Noble Wethersfield,-78.285995,42.619591,NE,0
NY,Noble Wethersfield,-78.285294,42.615791,NE,0
NY,Noble Wethersfield,-78.230293,42.644791,NE,0
NY,Noble Wethersfield,-78.227997,42.610592,NE,0
NY,Noble Wethersfield,-78.239998,42.603592,NE,0
NY,Noble Wethersfield,-78.21689599999998,42.670094,NE,0
NY,Noble Wethersfield,-78.249596,42.611591,NE,0
NY,Noble Wethersfield,-78.2882,42.613892,NE,0
NY,Noble Wethersfield,-78.272095,42.613392,NE,0
NY,Noble Wethersfield,-78.256294,42.656994,NE,0
NY,Noble Wethersfield,-78.269997,42.60799,NE,0
NY,Noble Wethersfield,-78.287498,42.609093,NE,0
NY,Noble Wethersfield,-78.24479699999998,42.600094,NE,0
NY,Noble Wethersfield,-78.239296,42.65649000000001,NE,0
NY,Noble Wethersfield,-78.242195,42.615093,NE,0
NY,Noble Wethersfield,-78.288597,42.590794,NE,0
NY,Noble Wethersfield,-78.225296,42.615093,NE,0
NY,Noble Wethersfield,-78.27669499999998,42.603191,NE,0
NY,Noble Wethersfield,-78.25039699999998,42.609493,NE,0
NY,Noble Wethersfield,-78.262497,42.664993,NE,0
NY,Noble Wethersfield,-78.30109399999998,42.599693,NE,0
NY,Noble Wethersfield,-78.239998,42.60659,NE,0
NY,Noble Wethersfield,-78.232697,42.641193,NE,0
NY,Noble Wethersfield,-78.265198,42.601391,NE,0
NY,Noble Wethersfield,-78.239799,42.601192,NE,0
NY,Noble Wethersfield,-78.246796,42.613892,NE,0
NY,Noble Wethersfield,-78.248795,42.644993,NE,0
NY,Noble Wethersfield,-78.245399,42.657192,NE,0
NY,Noble Wethersfield,-78.230995,42.614792,NE,0
NY,Noble Wethersfield,-78.299194,42.615791,NE,0
NY,Noble Wethersfield,-78.265297,42.615891,NE,0
NY,Noble Wethersfield,-78.2453,42.604294,NE,0
NY,Noble Wethersfield,-78.28969599999998,42.616692,NE,0
NY,Noble Wethersfield,-78.291901,42.602192,NE,0
NY,Noble Wethersfield,-78.234299,42.662891,NE,0
ME,Oakfield Wind,-68.120369,46.0555,NE,1
ME,Oakfield Wind,-68.114693,46.089111,NE,1
ME,Oakfield Wind,-68.053108,46.065029,NE,1
ME,Oakfield Wind,-68.11820999999999,46.083309,NE,1
ME,Oakfield Wind,-68.106133,46.07862100000001,NE,1
ME,Oakfield Wind,-68.076759,46.071251,NE,1
ME,Oakfield Wind,-68.133072,46.076622,NE,1
ME,Oakfield Wind,-68.129791,46.078701,NE,1
ME,Oakfield Wind,-68.052513,46.05545,NE,1
ME,Oakfield Wind,-68.094864,46.095619,NE,1
ME,Oakfield Wind,-68.103493,46.0275,NE,1
ME,Oakfield Wind,-68.127586,46.055862,NE,1
ME,Oakfield Wind,-68.108101,46.093639,NE,1
ME,Oakfield Wind,-68.12236800000001,46.081741,NE,1
ME,Oakfield Wind,-68.090073,46.062431,NE,1
ME,Oakfield Wind,-68.05259699999999,46.06049,NE,1
ME,Oakfield Wind,-68.102974,46.094532,NE,1
ME,Oakfield Wind,-68.134781,46.057281,NE,1
ME,Oakfield Wind,-68.08991999999999,46.01606,NE,1
ME,Oakfield Wind,-68.136963,46.075249,NE,1
ME,Oakfield Wind,-68.08918800000001,46.02108,NE,1
ME,Oakfield Wind,-68.138123,46.055332,NE,1
ME,Oakfield Wind,-68.089111,46.026131,NE,1
ME,Oakfield Wind,-68.141449,46.053379,NE,1
ME,Oakfield Wind,-68.113258,46.084389,NE,1
ME,Oakfield Wind,-68.073029,46.05302,NE,1
ME,Oakfield Wind,-68.102814,46.02248,NE,1
ME,Oakfield Wind,-68.121162,46.047081,NE,1
ME,Oakfield Wind,-68.07959,46.02541,NE,1
ME,Oakfield Wind,-68.126373,46.08049000000001,NE,1
ME,Oakfield Wind,-68.103149,46.082092,NE,1
ME,Oakfield Wind,-68.077919,46.02047,NE,1
ME,Oakfield Wind,-68.075508,46.059311,NE,1
ME,Oakfield Wind,-68.112297,46.091999,NE,1
ME,Oakfield Wind,-68.068291,46.079529,NE,1
ME,Oakfield Wind,-68.093857,46.060921,NE,1
ME,Oakfield Wind,-68.07067099999999,46.062359,NE,1
ME,Oakfield Wind,-68.144012,46.05173900000001,NE,1
ME,Oakfield Wind,-68.093292,46.05587,NE,1
ME,Oakfield Wind,-68.146561,46.050102,NE,1
ME,Oakfield Wind,-68.13961,46.07341,NE,1
ME,Oakfield Wind,-68.102097,46.017452,NE,1
ME,Oakfield Wind,-68.07309000000001,46.072899,NE,1
ME,Oakfield Wind,-68.054008,46.07412,NE,1
ME,Oakfield Wind,-68.100739,46.085781,NE,1
ME,Oakfield Wind,-68.069427,46.074551,NE,1
ME,Oakfield Wind,-68.05358100000001,46.069572,NE,1
ME,Oakfield Wind,-68.128357,46.046421,NE,1
NY,Orangeville Wind,-78.2061,42.746891,NE,0
NY,Orangeville Wind,-78.283699,42.777893,NE,0
NY,Orangeville Wind,-78.2379,42.757092,NE,0
NY,Orangeville Wind,-78.285294,42.773792,NE,0
NY,Orangeville Wind,-78.212601,42.778294,NE,0
NY,Orangeville Wind,-78.20369699999998,42.779991,NE,0
NY,Orangeville Wind,-78.243774,42.710823,NE,0
NY,Orangeville Wind,-78.236595,42.751991,NE,0
NY,Orangeville Wind,-78.234695,42.712391,NE,0
NY,Orangeville Wind,-78.203796,42.782192,NE,0
NY,Orangeville Wind,-78.264496,42.748291,NE,0
NY,Orangeville Wind,-78.272095,42.726292,NE,0
NY,Orangeville Wind,-78.23119399999999,42.772793,NE,0
NY,Orangeville Wind,-78.212296,42.713791,NE,0
NY,Orangeville Wind,-78.244087,42.708202,NE,0
NY,Orangeville Wind,-78.242485,42.732681,NE,0
NY,Orangeville Wind,-78.261101,42.708893,NE,0
NY,Orangeville Wind,-78.20099599999998,42.758492,NE,0
NY,Orangeville Wind,-78.211395,42.775993,NE,0
NY,Orangeville Wind,-78.231499,42.750492,NE,0
NY,Orangeville Wind,-78.270935,42.729961,NE,0
NY,Orangeville Wind,-78.2257,42.755093,NE,0
NY,Orangeville Wind,-78.2369,42.774891,NE,0
NY,Orangeville Wind,-78.205299,42.767193,NE,0
NY,Orangeville Wind,-78.22219799999998,42.718693,NE,0
NY,Orangeville Wind,-78.224998,42.752491,NE,0
NY,Orangeville Wind,-78.270882,42.744263,NE,0
NY,Orangeville Wind,-78.201897,42.743793,NE,0
NY,Orangeville Wind,-78.243996,42.726391,NE,0
NY,Orangeville Wind,-78.282799,42.779892,NE,0
NY,Orangeville Wind,-78.223801,42.765491,NE,0
NY,Orangeville Wind,-78.241196,42.729992,NE,0
NY,Orangeville Wind,-78.23719799999998,42.754593,NE,0
NY,Orangeville Wind,-78.271194,42.735394,NE,0
NY,Orangeville Wind,-78.20929699999998,42.772091,NE,0
NY,Orangeville Wind,-78.22449499999998,42.763092,NE,0
NY,Orangeville Wind,-78.244385,42.712944,NE,0
NY,Orangeville Wind,-78.206795,42.769592,NE,0
NY,Orangeville Wind,-78.209496,42.749191,NE,0
NY,Orangeville Wind,-78.25299100000002,42.731564,NE,0
NY,Orangeville Wind,-78.272095,42.723892,NE,0
NY,Orangeville Wind,-78.255501,42.763493,NE,0
NY,Orangeville Wind,-78.22604399999999,42.760967,NE,0
NY,Orangeville Wind,-78.236397,42.725193,NE,0
NY,Orangeville Wind,-78.265495,42.713291,NE,0
NY,Orangeville Wind,-78.2565,42.757992,NE,0
NY,Orangeville Wind,-78.245377,42.735123,NE,0
NY,Orangeville Wind,-78.22739399999998,42.75819,NE,0
NY,Orangeville Wind,-78.215401,42.780193,NE,0
NY,Orangeville Wind,-78.27359799999998,42.709091,NE,0
NY,Orangeville Wind,-78.28439300000002,42.775494,NE,0
NY,Orangeville Wind,-78.219498,42.716591,NE,0
NY,Orangeville Wind,-78.253799,42.734493,NE,0
NY,Orangeville Wind,-78.273483,42.746143,NE,0
NY,Orangeville Wind,-78.263901,42.710892,NE,0
NY,Orangeville Wind,-78.236198,42.720093,NE,0
NY,Orangeville Wind,-78.253899,42.76099,NE,0
NY,Orangeville Wind,-78.269798,42.741493,NE,0
MA,Otis Wind Energy Project,-73.025764,42.225765,NE,0
ME,Passadumkeag,-68.343338,45.12727,NE,1
ME,Passadumkeag,-68.372139,45.12838,NE,1
ME,Passadumkeag,-68.329185,45.132641,NE,1
ME,Passadumkeag,-68.321976,45.137318,NE,1
ME,Passadumkeag,-68.387497,45.126011,NE,1
ME,Passadumkeag,-68.38086700000001,45.130032,NE,1
ME,Passadumkeag,-68.367554,45.128105,NE,1
ME,Passadumkeag,-68.376198,45.129528,NE,1
ME,Passadumkeag,-68.30866999999999,45.145927,NE,1
ME,Passadumkeag,-68.351608,45.12991,NE,1
ME,Passadumkeag,-68.31597099999999,45.141567,NE,1
ME,Passadumkeag,-68.36056500000001,45.129524,NE,1
ME,Passadumkeag,-68.347107,45.129456,NE,1
ME,Patriot,-69.338287,44.491611,NE,1
ME,Patriot,-69.332497,44.49749,NE,1
ME,Patriot,-69.334999,44.49638,NE,1
MA,Philips Lightolier,-71.116997,41.74609,NE,0
CT,Phoenix Press,-72.90193199999999,41.301205,NE,-1
ME,Pisgah Mountain,-68.521385,44.775269,NE,1
ME,Pisgah Mountain,-68.527878,44.778004,NE,1
ME,Pisgah Mountain,-68.523338,44.77742,NE,1
ME,Pisgah Mountain,-68.519791,44.772827,NE,1
ME,Pisgah Mountain,-68.524231,44.78008300000001,NE,1
ME,Presque Isle,-68.02020300000001,46.667389,NE,1
MA,Princeton Municipal Light and Water Plant,-71.899597,42.47699,NE,0
MA,Princeton Municipal Light and Water Plant,-71.899796,42.47879,NE,0
ME,Record Hill,-70.6334,44.683392,NE,1
ME,Record Hill,-70.629097,44.642292,NE,1
ME,Record Hill,-70.631897,44.671593,NE,1
ME,Record Hill,-70.633499,44.681393,NE,1
ME,Record Hill,-70.630402,44.663292,NE,1
ME,Record Hill,-70.632301,44.67569,NE,1
ME,Record Hill,-70.630096,44.658993,NE,1
ME,Record Hill,-70.6315,44.665192,NE,1
ME,Record Hill,-70.632896,44.67749,NE,1
ME,Record Hill,-70.632202,44.667191,NE,1
ME,Record Hill,-70.630302,44.638092,NE,1
ME,Record Hill,-70.631798,44.669292,NE,1
ME,Record Hill,-70.631401,44.673691,NE,1
ME,Record Hill,-70.63299599999998,44.679489,NE,1
ME,Record Hill,-70.632599,44.652691,NE,1
ME,Record Hill,-70.631996,44.65049000000001,NE,1
ME,Record Hill,-70.631203,44.654793,NE,1
ME,Record Hill,-70.630302,44.63599,NE,1
ME,Record Hill,-70.6278,44.661289,NE,1
ME,Record Hill,-70.627701,44.63369,NE,1
ME,Record Hill,-70.6297,44.64019,NE,1
ME,Record Hill,-70.630302,44.656891,NE,1
ME,Rollins,-68.390999,45.311291,NE,1
ME,Rollins,-68.360901,45.402592,NE,1
ME,Rollins,-68.359802,45.37709,NE,1
ME,Rollins,-68.400803,45.28109,NE,1
ME,Rollins,-68.3964,45.32299,NE,1
ME,Rollins,-68.37930300000001,45.411289,NE,1
ME,Rollins,-68.368103,45.381691,NE,1
ME,Rollins,-68.379898,45.413692,NE,1
ME,Rollins,-68.3964,45.299892,NE,1
ME,Rollins,-68.39299799999999,45.294392,NE,1
ME,Rollins,-68.364098,45.38789000000001,NE,1
ME,Rollins,-68.36150400000001,45.397591,NE,1
ME,Rollins,-68.364098,45.372292,NE,1
ME,Rollins,-68.39859799999999,45.279392,NE,1
ME,Rollins,-68.36350300000001,45.390392,NE,1
ME,Rollins,-68.378799,45.330791,NE,1
ME,Rollins,-68.36239599999999,45.379292,NE,1
ME,Rollins,-68.392899,45.301792,NE,1
ME,Rollins,-68.36150400000001,45.39539,NE,1
ME,Rollins,-68.362,45.393089,NE,1
ME,Rollins,-68.393799,45.319092,NE,1
ME,Rollins,-68.364899,45.383392,NE,1
ME,Rollins,-68.3843,45.332291,NE,1
ME,Rollins,-68.39119699999999,45.292789,NE,1
ME,Rollins,-68.381302,45.415489,NE,1
ME,Rollins,-68.3825,45.32909,NE,1
ME,Rollins,-68.383797,45.30579,NE,1
ME,Rollins,-68.36460100000001,45.37439000000001,NE,1
ME,Rollins,-68.361298,45.400291,NE,1
ME,Rollins,-68.393997,45.296593,NE,1
ME,Rollins,-68.38780200000001,45.303192,NE,1
ME,Rollins,-68.3871,45.30859,NE,1
ME,Rollins,-68.377098,45.33279,NE,1
ME,Rollins,-68.397697,45.324989,NE,1
ME,Rollins,-68.403702,45.28199,NE,1
ME,Rollins,-68.3666,45.40419,NE,1
ME,Rollins,-68.364304,45.38559,NE,1
ME,Rollins,-68.398697,45.327091,NE,1
ME,Rollins,-68.393204,45.32159,NE,1
ME,Rollins,-68.396599,45.276489,NE,1
MD,Roth Rock,-79.443001,39.279892,NE,2
MD,Roth Rock,-79.447701,39.275494,NE,2
MD,Roth Rock,-79.460594,39.26099,NE,2
MD,Roth Rock,-79.451401,39.271591,NE,2
MD,Roth Rock,-79.438194,39.284393,NE,2
MD,Roth Rock,-79.439995,39.28289,NE,2
MD,Roth Rock,-79.445099,39.277592,NE,2
MD,Roth Rock,-79.44099399999998,39.280991,NE,2
MD,Roth Rock,-79.461899,39.259193,NE,2
MD,Roth Rock,-79.434097,39.287693,NE,2
MD,Roth Rock,-79.454895,39.268093,NE,2
MD,Roth Rock,-79.4561,39.266293,NE,2
MD,Roth Rock,-79.43639399999998,39.28569,NE,2
MD,Roth Rock,-79.457695,39.264793,NE,2
MD,Roth Rock,-79.463799,39.257793,NE,2
MD,Roth Rock,-79.459198,39.263191,NE,2
MD,Roth Rock,-79.4655,39.256191,NE,2
MD,Roth Rock,-79.4496,39.273594,NE,2
MD,Roth Rock,-79.4674,39.254791,NE,2
MD,Roth Rock,-79.452995,39.269993,NE,2
ME,Saddleback Ridge,-70.369438,44.610981,NE,1
ME,Saddleback Ridge,-70.37309300000003,44.607841,NE,1
ME,Saddleback Ridge,-70.37999,44.601429,NE,1
ME,Saddleback Ridge,-70.375519,44.606831,NE,1
ME,Saddleback Ridge,-70.36657,44.616241,NE,1
ME,Saddleback Ridge,-70.36541,44.61821,NE,1
ME,Saddleback Ridge,-70.367958,44.614189,NE,1
ME,Saddleback Ridge,-70.37844100000002,44.603172,NE,1
ME,Saddleback Ridge,-70.371277,44.60952,NE,1
ME,Saddleback Ridge,-70.364731,44.620529,NE,1
ME,Saddleback Ridge,-70.36367,44.622372,NE,1
ME,Saddleback Ridge,-70.376099,44.60442000000001,NE,1
MA,Scituate Wind,-70.7285,42.175091,NE,0
NY,Seneca Nation,-79.102692,42.580894,NE,0
ME,Spruce Mountain,-70.55210100000002,44.422092,NE,1
ME,Spruce Mountain,-70.550896,44.42379,NE,1
ME,Spruce Mountain,-70.559196,44.420193,NE,1
ME,Spruce Mountain,-70.559898,44.413589,NE,1
ME,Spruce Mountain,-70.560097,44.41819,NE,1
ME,Spruce Mountain,-70.566002,44.40509,NE,1
ME,Spruce Mountain,-70.553596,44.42049,NE,1
ME,Spruce Mountain,-70.565697,44.407692,NE,1
ME,Spruce Mountain,-70.562599,44.411793,NE,1
ME,Spruce Mountain,-70.560097,44.415691,NE,1
NY,Steel Winds,-78.8675,42.817093,NE,0
NY,Steel Winds,-78.870399,42.821991,NE,0
NY,Steel Winds,-78.86799599999998,42.818592,NE,0
NY,Steel Winds,-78.863998,42.81229,NE,0
NY,Steel Winds,-78.865997,42.815292,NE,0
NY,Steel Winds,-78.864899,42.81369,NE,0
NY,Steel Winds,-78.8713,42.823891,NE,0
NY,Steel Winds,-78.868996,42.820293,NE,0
NY,Steel Winds II,-78.86179399999997,42.806393,NE,0
NY,Steel Winds II,-78.8601,42.803291,NE,0
NY,Steel Winds II,-78.8591,42.801891,NE,0
NY,Steel Winds II,-78.871094,42.825893,NE,0
NY,Steel Winds II,-78.85709399999998,42.80109,NE,0
NY,Steel Winds II,-78.861,42.804893,NE,0
ME,Stetson,-67.987801,45.49239,NE,1
ME,Stetson,-67.968498,45.564491,NE,1
ME,Stetson,-67.965797,45.57029,NE,1
ME,Stetson,-67.974899,45.543491,NE,1
ME,Stetson,-67.984398,45.505791,NE,1
ME,Stetson,-67.986801,45.497192,NE,1
ME,Stetson,-67.978699,45.51519,NE,1
ME,Stetson,-67.972801,45.550091,NE,1
ME,Stetson,-67.984703,45.503292,NE,1
ME,Stetson,-67.976799,45.52449,NE,1
ME,Stetson,-67.977997,45.513191,NE,1
ME,Stetson,-67.986603,45.489792,NE,1
ME,Stetson,-67.985199,45.499092,NE,1
ME,Stetson,-67.97779799999999,45.528492,NE,1
ME,Stetson,-67.974899,45.541492,NE,1
ME,Stetson,-67.978401,45.51989,NE,1
ME,Stetson,-67.980698,45.510891,NE,1
ME,Stetson,-67.976196,45.53949,NE,1
ME,Stetson,-67.977203,45.535091,NE,1
ME,Stetson,-67.977501,45.522289,NE,1
ME,Stetson,-67.965401,45.572693,NE,1
ME,Stetson,-67.98490100000001,45.501091,NE,1
ME,Stetson,-67.97689799999999,45.526592,NE,1
ME,Stetson,-67.968102,45.562492,NE,1
ME,Stetson,-67.974701,45.547993,NE,1
ME,Stetson,-67.9907,45.488293,NE,1
ME,Stetson,-67.977699,45.53289,NE,1
ME,Stetson,-67.994598,45.482391,NE,1
ME,Stetson,-67.979202,45.517292,NE,1
ME,Stetson,-67.977402,45.530392,NE,1
ME,Stetson,-67.971497,45.554291,NE,1
ME,Stetson,-67.974998,45.545391,NE,1
ME,Stetson,-67.993401,45.485493,NE,1
ME,Stetson,-67.987099,45.49509000000001,NE,1
ME,Stetson,-67.9832,45.508392,NE,1
ME,Stetson,-67.972298,45.552193,NE,1
ME,Stetson,-67.976799,45.537292,NE,1
ME,Stetson,-67.968399,45.56699,NE,1
ME,Stetson Wind expansion,-67.977203,45.62429,NE,1
ME,Stetson Wind expansion,-67.979698,45.632893,NE,1
ME,Stetson Wind expansion,-67.980103,45.62669,NE,1
ME,Stetson Wind expansion,-67.958702,45.595989,NE,1
ME,Stetson Wind expansion,-67.977699,45.636791,NE,1
ME,Stetson Wind expansion,-67.980103,45.630791,NE,1
ME,Stetson Wind expansion,-67.961304,45.588989,NE,1
ME,Stetson Wind expansion,-67.97530400000001,45.622089,NE,1
ME,Stetson Wind expansion,-67.97820300000001,45.639091,NE,1
ME,Stetson Wind expansion,-67.959396,45.593891,NE,1
ME,Stetson Wind expansion,-67.9785,45.634689,NE,1
ME,Stetson Wind expansion,-67.960899,45.586891,NE,1
ME,Stetson Wind expansion,-67.968399,45.616989,NE,1
ME,Stetson Wind expansion,-67.97979699999999,45.628693,NE,1
ME,Stetson Wind expansion,-67.959503,45.584991,NE,1
ME,Stetson Wind expansion,-67.970802,45.619591,NE,1
ME,Stetson Wind expansion,-67.961197,45.59119000000001,NE,1
MD,Talbot County DPW,-76.032524,38.818398,NE,-1
MD,Talbot County DPW,-76.031288,38.818398,NE,-1
MD,Talbot County DPW,-76.033745,38.818405,NE,-1
MA,Templeton Wind Turbine,-72.077698,42.589092,NE,0
NY,Town of Richland,-76.03699499999998,43.565189,NE,0
DE,University of Delaware,-75.164902,38.78289,NE,-1
MA,University of Massachussetts Dartmouth,-71.010597,41.62669,NE,0
NY,Wethersfield,-78.245193,42.685593,NE,0
NY,Wethersfield,-78.246498,42.682793,NE,0
NY,Wethersfield,-78.24589499999998,42.681992,NE,0
NY,Wethersfield,-78.244194,42.679592,NE,0
NY,Wethersfield,-78.24479699999998,42.680393,NE,0
NY,Wethersfield,-78.246201,42.687092,NE,0
NY,Wethersfield,-78.243698,42.678791,NE,0
NY,Wethersfield,-78.245399,42.68119,NE,0
NY,Wethersfield,-78.24569699999998,42.686291,NE,0
NY,Wethersfield,-78.245796,42.684093,NE,0
MA,Williams Stone,-73.069901,42.234192,NE,0
CT,Wind Colebrook South,-73.145882,41.962429,NE,0
CT,Wind Colebrook South,-73.145027,41.964752,NE,0
MA,Woods Hole Research Center,-70.643204,41.548992,NE,0
NY,Zotos,-76.968399,42.887093,NE,0
NY,Zotos,-76.967598,42.886192,NE,0
NY,unknown Allegany County,-78.307854,42.51987800000001,NE,0
ME,unknown Aroostook County,-67.808144,46.556145,NE,1
ME,unknown Aroostook County,-67.807732,46.567707,NE,1
ME,unknown Aroostook County,-67.80722800000001,46.557861,NE,1
NY,unknown Cayuga County,-76.582039,42.663563,NE,0
NY,unknown Chautauqua County,-79.229752,42.333969,NE,0
NY,unknown Chautauqua County,-79.22879,42.330956,NE,0
NY,unknown Chautauqua County,-79.23053,42.336887,NE,0
NY,unknown Erie County,-78.929062,42.977791,NE,0
NY,unknown Erie County,-78.931122,42.977005,NE,0
NY,unknown Genesee County,-78.40323599999998,43.000553,NE,0
NY,unknown Greene County,-74.043701,42.353592,NE,0
ME,unknown Hancock County,-68.21344,44.731239,NE,1
ME,unknown Hancock County,-68.236938,44.82435200000001,NE,1
ME,unknown Hancock County,-68.246567,44.803421,NE,1
ME,unknown Hancock County,-68.22039000000001,44.825539,NE,1
ME,unknown Hancock County,-68.22245799999999,44.798611,NE,1
ME,unknown Hancock County,-68.235359,44.749641,NE,1
ME,unknown Hancock County,-68.23397800000001,44.745205,NE,1
ME,unknown Hancock County,-68.18573,44.740761,NE,1
ME,unknown Hancock County,-68.209572,44.736202,NE,1
ME,unknown Hancock County,-68.22663100000001,44.796932,NE,1
ME,unknown Hancock County,-68.20899200000001,44.732487,NE,1
ME,unknown Hancock County,-68.18744699999999,44.736179,NE,1
ME,unknown Hancock County,-68.197212,44.733406,NE,1
ME,unknown Hancock County,-68.212181,44.823372,NE,1
ME,unknown Hancock County,-68.21260799999999,44.827339,NE,1
ME,unknown Hancock County,-68.21779599999999,44.729824,NE,1
ME,unknown Hancock County,-68.191811,44.734768,NE,1
ME,unknown Hancock County,-68.241936,44.80431,NE,1
ME,unknown Hancock County,-68.22518199999999,44.825569,NE,1
ME,unknown Hancock County,-68.238235,44.743633,NE,1
ME,unknown Hancock County,-68.217232,44.802101,NE,1
ME,unknown Hancock County,-68.237762,44.805977,NE,1
NY,unknown Kings County,-74.008804,40.663235,NE,-1
NY,unknown Lewis County,-75.622795,43.689442,NE,0
NY,unknown Lewis County,-75.60981,43.68655,NE,0
NY,unknown Lewis County,-75.606308,43.681042,NE,0
NY,unknown Lewis County,-75.632828,43.736725,NE,0
NY,unknown Montgomery County,-74.459503,42.858387,NE,0
NY,unknown Montgomery County,-74.560989,42.951988,NE,0
NY,unknown Niagara County,-78.493965,43.282898,NE,0
NY,unknown Oneida County,-75.445847,42.976818,NE,0
NY,unknown Oneida County,-75.448891,42.974724,NE,0
NY,unknown Suffolk County,-72.205276,40.972466,NE,-1
NY,unknown Wyoming County,-78.187935,42.740818,NE,0
