state,name,lon,lat,region,ID,cluster
NY,Orangeville Wind,-78.20369699999998,42.779991,NE,39649,1
NY,Marble River,-73.91179699999998,44.99559,NE,33125,8
NY,Jericho Rise,-74.08287,44.879982,NE,26743,8
NY,Orangeville Wind,-78.269798,42.741493,NE,39701,1
NY,Orangeville Wind,-78.219498,42.716591,NE,39695,1
NH,Antrim,-72.009064,43.061455,NE,1399,0
ME,Bingham Wind,-69.63205,45.15871,NE,4353,2
ME,Passadumkeag,-68.30866999999999,45.145927,NE,41470,3
NY,Steel Winds II,-78.8601,42.803291,NE,53854,1
NY,Maple Ridge (Lowville),-75.599396,43.808392,NE,33005,4
NY,Arkwright Summit,-79.250679,42.420475,NE,1732,1
NY,unknown Lewis County,-75.606308,43.681042,NE,64325,4
NY,Marble River,-73.96219599999998,44.931492,NE,33118,8
NY,Noble Ellenburg,-73.999001,44.87479,NE,37851,8
NY,Noble Wethersfield,-78.277695,42.632191,NE,38009,1
NY,Copenhagen,-75.59058399999998,43.87012100000001,NE,13195,4
NY,Fenner Wind Power Project,-75.7603,42.976891,NE,17538,6
ME,Stetson Wind expansion,-67.960899,45.586891,NE,54242,3
NY,High Sheldon,-78.394196,42.731293,NE,23947,1
ME,Bingham Wind,-69.691109,45.132149,NE,4302,2
NY,Dutch Hill/Cohocton,-77.399498,42.529892,NE,15743,1
NY,Maple Ridge (Lowville),-75.601601,43.809891,NE,33069,4
NY,Noble Chateaugay,-74.044495,44.914791,NE,37727,8
NY,Dutch Hill/Cohocton,-77.40149699999998,42.526493,NE,15755,1
ME,Oakfield Wind,-68.08991999999999,46.01606,NE,39138,3
NY,Noble Ellenburg,-73.979401,44.864693,NE,37868,8
ME,Bingham Wind,-69.63383499999999,45.170956,NE,4337,2
MD,Criterion,-79.336998,39.369892,NE,13655,5
NY,Copenhagen,-75.618286,43.901035,NE,13174,4
NY,Arkwright Summit,-79.209778,42.382069,NE,1755,1
NY,Maple Ridge,-75.56019599999998,43.720791,NE,32942,4
NY,High Sheldon,-78.406494,42.72039,NE,23945,1
NY,Noble Clinton,-74.009895,44.920692,NE,37829,8
NY,Noble Clinton,-73.98739599999998,44.921391,NE,37796,8
ME,unknown Hancock County,-68.236938,44.82435200000001,NE,63730,3
NY,Noble Clinton,-73.998795,44.93779,NE,37818,8
NY,Noble Chateaugay,-74.02109499999997,44.877392,NE,37750,8
NY,Fenner Wind Power Project,-75.7593,42.998592,NE,17547,6
NY,Noble Wethersfield,-78.242195,42.615093,NE,38037,1
NY,Marble River,-73.92229499999998,44.87249,NE,33082,8
NY,Jericho Rise,-74.092972,44.897095,NE,26730,8
NY,Noble Altona,-73.6595,44.817093,NE,37590,8
NY,Noble Clinton,-74.002296,44.90089,NE,37798,8
NY,Noble Ellenburg,-73.925995,44.86499,NE,37873,8
MA,MWRA Deer Island,-70.957298,42.347092,NE,32336,0
NY,Hardscrabble,-74.903297,43.128391,NE,22901,6
NY,Maple Ridge,-75.550995,43.751591,NE,32985,4
NY,Marble River,-73.96399699999998,44.92189000000001,NE,33091,8
NY,Maple Ridge,-75.552399,43.76849,NE,32904,4
NY,Marble River,-73.913399,44.895592,NE,33145,8
NY,Noble Bliss,-78.23679399999997,42.572193,NE,37702,1
MD,Roth Rock,-79.4655,39.256191,NE,48032,5
NY,Noble Altona,-73.669701,44.841991,NE,37599,8
MD,Roth Rock,-79.447701,39.275494,NE,48017,5
NY,Maple Ridge (Lowville),-75.629395,43.785591,NE,33032,4
NY,Noble Altona,-73.64679699999998,44.815392,NE,37619,8
ME,Oakfield Wind,-68.08918800000001,46.02108,NE,39140,3
ME,Stetson,-67.986801,45.497192,NE,54198,3
NY,High Sheldon,-78.396996,42.744392,NE,23951,1
NY,Noble Ellenburg,-74.004097,44.878693,NE,37872,8
ME,Stetson,-67.971497,45.554291,NE,54223,3
NY,Fenner Wind Power Project - Repower,-75.767876,42.975517,NE,17551,6
NY,Noble Wethersfield,-78.248795,42.644993,NE,38049,1
NH,Granite Reliable Power,-71.314499,44.774391,NE,21430,3
NY,Noble Bliss,-78.254898,42.522991,NE,37700,1
NY,Dutch Hill/Cohocton,-77.420998,42.542492,NE,15741,1
ME,Oakfield Wind,-68.144012,46.05173900000001,NE,39157,3
NH,Granite Reliable Power,-71.28409599999998,44.726192,NE,21433,3
NY,Orangeville Wind,-78.261101,42.708893,NE,39660,1
ME,Rollins,-68.400803,45.28109,NE,47626,3
MD,Criterion,-79.278198,39.417294,NE,13666,5
ME,Canton Mountain,-70.300888,44.520935,NE,9607,3
ME,Canton Mountain,-70.303886,44.512718,NE,9604,3
ME,Rollins,-68.359802,45.37709,NE,47625,3
NY,Noble Ellenburg,-73.931,44.87149,NE,37866,8
NY,Noble Bliss,-78.2584,42.536591,NE,37651,1
NY,Orangeville Wind,-78.23719799999998,42.754593,NE,39676,1
ME,Rollins,-68.3843,45.332291,NE,47645,3
ME,Oakfield Wind,-68.114693,46.089111,NE,39121,3
NY,Noble Bliss,-78.30439799999998,42.54129,NE,37656,1
ME,Mars Hill,-67.80806700000001,46.554146,NE,33380,3
NY,Madison Windpower,-75.450096,42.896191,NE,32420,6
NY,Munnsville,-75.541,42.947392,NE,36921,6
NY,Arkwright Summit,-79.22216800000002,42.388699,NE,1740,1
NY,Munnsville,-75.574699,42.902493,NE,36926,6
ME,Oakfield Wind,-68.07067099999999,46.062359,NE,39156,3
NY,Orangeville Wind,-78.243996,42.726391,NE,39672,1
ME,Bingham Wind,-69.685005,45.14526400000001,NE,4301,2
NY,Steel Winds II,-78.861,42.804893,NE,53858,1
NY,Hardscrabble,-74.898895,43.138191,NE,22900,6
MA,MWRA Deer Island,-70.95644399999998,42.345852,NE,32335,0
ME,Bull Hill,-68.14810200000001,44.73629,NE,8314,3
NY,Copenhagen,-75.635063,43.899338,NE,13168,4
NY,Maple Ridge,-75.537498,43.730392,NE,32954,4
MD,Fair Wind,-79.388489,39.324112,NE,17344,5
NY,Maple Ridge (Lowville),-75.590797,43.82029,NE,33040,4
NY,Noble Wethersfield,-78.239998,42.603592,NE,38027,1
NY,Noble Bliss,-78.291595,42.54129,NE,37685,1
NY,Noble Bliss,-78.275696,42.556091,NE,37669,1
ME,Stetson,-67.977501,45.522289,NE,54212,3
ME,Oakfield Wind,-68.076759,46.071251,NE,39125,3
NY,Noble Chateaugay,-74.055801,44.905491,NE,37774,8
NY,Orangeville Wind,-78.28439300000002,42.775494,NE,39694,1
NY,Maple Ridge,-75.511299,43.696091,NE,32975,4
NY,Marble River,-73.941399,44.98069,NE,33140,8
NY,Maple Ridge (Lowville),-75.6073,43.81319000000001,NE,32998,4
NY,Noble Bliss,-78.247299,42.54129,NE,37665,1
NY,Jericho Rise,-74.082771,44.883896,NE,26731,8
NY,Noble Wethersfield,-78.245399,42.657192,NE,38050,1
ME,Hancock,-68.11808,44.771362,NE,22682,3
NY,Noble Clinton,-73.995499,44.948193,NE,37797,8
NY,Noble Ellenburg,-73.995399,44.876091,NE,37884,8
NH,Groton,-71.830696,43.780891,NE,22223,7
ME,unknown Hancock County,-68.22518199999999,44.825569,NE,63747,3
NY,High Sheldon,-78.4076,42.724491,NE,23931,1
NY,Orangeville Wind,-78.212296,42.713791,NE,39657,1
NY,Jericho Rise,-74.118935,44.865524,NE,26759,8
NY,Maple Ridge (Lowville),-75.599701,43.81879,NE,32997,4
ME,Stetson Wind expansion,-67.968399,45.616989,NE,54243,3
ME,Hancock,-68.157669,44.766171,NE,22681,3
NY,Maple Ridge (Lowville),-75.605202,43.802891,NE,33017,4
NY,Maple Ridge,-75.534401,43.74799,NE,32952,4
NY,Jericho Rise,-74.098152,44.872025,NE,26761,8
NY,Maple Ridge (Lowville),-75.608299,43.797489,NE,33001,4
NH,Granite Reliable Power,-71.320198,44.790291,NE,21427,3
NY,Noble Altona,-73.650902,44.82159,NE,37602,8
ME,Saddleback Ridge,-70.36657,44.616241,NE,48714,3
NY,Arkwright Summit,-79.231461,42.39780800000001,NE,1750,1
MA,Future Generation Wind,-70.623413,41.781647,NE,19233,0
NY,Noble Chateaugay,-74.028999,44.87619,NE,37713,8
NY,Noble Ellenburg,-74.003799,44.87569000000001,NE,37891,8
ME,Bingham Wind,-69.679024,45.149693,NE,4310,2
ME,Stetson Wind expansion,-67.958702,45.595989,NE,54234,3
MA,Falmouth II,-70.621498,41.609291,NE,17363,0
ME,Bingham Wind,-69.74296600000001,45.088017,NE,4316,2
NY,Noble Chateaugay,-74.066795,44.921989,NE,37721,8
NY,unknown Niagara County,-78.493965,43.282898,NE,65262,1
NY,Maple Ridge (Lowville),-75.6353,43.835293,NE,33078,4
NY,Copenhagen,-75.592972,43.886776,NE,13173,4
ME,Bingham Wind,-69.65501400000001,45.159168,NE,4349,2
ME,Kibby Mountain II,-70.583199,45.331593,NE,27778,2
ME,Record Hill,-70.631897,44.671593,NE,45833,3
ME,Mars Hill,-67.814903,46.535091,NE,33377,3
ME,Mars Hill,-67.813599,46.538792,NE,33372,3
NY,Arkwright Summit,-79.2416,42.393955,NE,1736,1
NY,Noble Bliss,-78.27879300000002,42.544891,NE,37681,1
NY,Noble Clinton,-73.984299,44.89579000000001,NE,37788,8
NY,Maple Ridge,-75.56109599999998,43.778992,NE,32992,4
NY,Noble Clinton,-74.0047,44.94059,NE,37786,8
NY,Noble Wethersfield,-78.245094,42.659893,NE,38003,1
NY,unknown Erie County,-78.929062,42.977791,NE,63454,1
NY,Orangeville Wind,-78.244087,42.708202,NE,39658,1
NY,Arkwright Summit,-79.245026,42.427578,NE,1751,1
NY,Noble Wethersfield,-78.240196,42.609192,NE,37993,1
ME,Hancock,-68.179787,44.763466,NE,22692,3
MD,Fair Wind,-79.374527,39.338421,NE,17347,5
ME,Bingham Wind,-69.751671,45.086685,NE,4345,2
MA,Ipswich II,-70.846397,42.717293,NE,26272,0
NY,Noble Clinton,-74.005096,44.91679,NE,37828,8
ME,Rollins,-68.377098,45.33279,NE,47655,3
MA,Berkshire Wind,-73.274597,42.58989,NE,3480,0
NY,Maple Ridge,-75.517799,43.721092,NE,32944,4
NY,Noble Ellenburg,-74.003899,44.862991,NE,37859,8
NY,Copenhagen,-75.69693000000002,43.912449,NE,13171,4
ME,Kibby Mountain II,-70.54450200000002,45.335091,NE,27786,2
NY,Maple Ridge,-75.572197,43.779091,NE,32924,4
NY,Maple Ridge,-75.525696,43.735291,NE,32889,4
NY,Maple Ridge,-75.668396,43.807091,NE,32890,4
NY,Maple Ridge (Lowville),-75.635597,43.821491,NE,33043,4
NY,Fenner Wind Power Project,-75.76709699999998,43.000992,NE,17546,6
NH,Groton,-71.7883,43.754292,NE,22229,7
ME,Saddleback Ridge,-70.36367,44.622372,NE,48720,3
NY,Orangeville Wind,-78.264496,42.748291,NE,39654,1
NY,Noble Bliss,-78.23159799999998,42.562092,NE,37672,1
NY,Maple Ridge,-75.5308,43.746693,NE,32886,4
NY,Hardscrabble,-74.895996,43.122391,NE,22898,6
NY,Wethersfield,-78.245796,42.684093,NE,59626,1
ME,Rollins,-68.398697,45.327091,NE,47660,3
MA,University of Massachussetts Dartmouth,-71.010597,41.62669,NE,58065,0
NY,Howard,-77.504112,42.328938,NE,25564,1
ME,Oakfield Wind,-68.090073,46.062431,NE,39134,3
ME,Bingham Wind,-69.628914,45.163555,NE,4312,2
MA,Nantucket High School,-70.097771,41.272144,NE,36978,0
NY,Noble Wethersfield,-78.2453,42.604294,NE,38054,1
NY,Noble Wethersfield,-78.288597,42.590794,NE,38038,1
NY,Howard,-77.550301,42.32579000000001,NE,25558,1
MD,Fourmile Ridge,-78.99987800000002,39.645542,NE,18658,5
NY,Dutch Hill/Cohocton,-77.492393,42.530792,NE,15738,1
MA,Mount Wachusett Wind Farm,-71.983597,42.590691,NE,36540,0
NY,Munnsville,-75.562599,42.952991,NE,36922,6
NY,Jericho Rise,-74.095161,44.89962,NE,26738,8
ME,Bull Hill,-68.1623,44.730789,NE,8325,3
ME,Kibby Mountain II,-70.547096,45.32869,NE,27791,2
ME,unknown Hancock County,-68.18744699999999,44.736179,NE,63740,3
MA,Hoosac,-73.044197,42.730991,NE,24734,0
NY,Marble River,-73.95929699999998,44.915489,NE,33128,8
MD,Criterion,-79.353394,39.357292,NE,13648,5
NY,Dutch Hill/Cohocton,-77.525497,42.443291,NE,15751,1
ME,Bull Hill,-68.1595,44.731892,NE,8310,3
NY,Noble Altona,-73.648399,44.817989,NE,37601,8
NY,Maple Ridge (Lowville),-75.617897,43.81089,NE,33075,4
NY,Marble River,-73.940498,44.884293,NE,33108,8
ME,Passadumkeag,-68.387497,45.126011,NE,41466,3
NY,Noble Chateaugay,-74.041801,44.92569,NE,37724,8
NH,Granite Reliable Power,-71.304802,44.846092,NE,21443,3
MA,Fairhaven Wind,-70.8722,41.637192,NE,17360,0
NY,Copenhagen,-75.621544,43.902374,NE,13170,4
NY,Hardscrabble,-74.89119699999998,43.127491,NE,22894,6
NY,New York State Thruway Authority,-79.5868,42.339123,NE,37383,1
NY,Noble Chateaugay,-74.03479,44.882301,NE,37759,8
ME,Mars Hill,-67.80764,46.561195,NE,33366,3
NH,Groton,-71.81289699999998,43.769993,NE,22211,7
ME,Bingham Wind,-69.67529300000001,45.151234,NE,4331,2
NY,Orangeville Wind,-78.270935,42.729961,NE,39664,1
ME,Oakfield Wind,-68.133072,46.076622,NE,39126,3
MD,Criterion,-79.290199,39.404793,NE,13668,5
ME,Rollins,-68.37930300000001,45.411289,NE,47628,3
NY,High Sheldon,-78.361298,42.773193,NE,23937,1
MA,Berkshire Wind,-73.274101,42.582291,NE,3473,0
NY,Zotos,-76.967598,42.886192,NE,61638,1
NY,Jericho Rise,-74.099625,44.885441,NE,26749,8
ME,Stetson,-67.977997,45.513191,NE,54203,3
NY,Arkwright Summit,-79.259651,42.431263,NE,1730,1
NY,Maple Ridge (Lowville),-75.639595,43.82859000000001,NE,33024,4
NY,Maple Ridge (Lowville),-75.679199,43.811691,NE,33037,4
MD,Fourmile Ridge,-79.00145699999999,39.643494,NE,18652,5
ME,"Kibby Mountain, phase I",-70.5438,45.400692,NE,27805,2
NY,Howard,-77.5215,42.316692,NE,25575,1
NY,Noble Altona,-73.6455,44.809391,NE,37631,8
NH,Granite Reliable Power,-71.31289699999998,44.776192,NE,21453,3
NY,Hardscrabble,-74.900497,43.162891,NE,22889,6
NY,Noble Bliss,-78.235199,42.564991,NE,37667,1
NY,Noble Bliss,-78.278999,42.552692,NE,37648,1
NY,Noble Clinton,-74.007797,44.923492,NE,37806,8
NY,Noble Bliss,-78.2397,42.560093,NE,37649,1
NH,Lempster,-72.139496,43.241989,NE,30090,0
NY,Maple Ridge (Lowville),-75.61529499999997,43.77779,NE,33059,4
ME,unknown Hancock County,-68.21260799999999,44.827339,NE,63743,3
ME,"Kibby Mountain, phase I",-70.53679699999998,45.40799000000001,NE,27806,2
NY,Howard,-77.511299,42.323994,NE,25563,1
NY,Noble Wethersfield,-78.265198,42.601391,NE,38046,1
NY,Maple Ridge,-75.573097,43.73679,NE,32891,4
NY,Noble Clinton,-73.992798,44.902592,NE,37778,8
NY,Noble Clinton,-73.999199,44.894192,NE,37839,8
ME,Stetson,-67.987801,45.49239,NE,54193,3
NY,Noble Altona,-73.648399,44.830391,NE,37577,8
NY,Noble Chateaugay,-74.023201,44.901093,NE,37731,8
NY,Dutch Hill/Cohocton,-77.527794,42.44099,NE,15720,1
NY,Noble Ellenburg,-73.969101,44.879292,NE,37856,8
ME,Rollins,-68.36150400000001,45.397591,NE,47634,3
NY,Howard,-77.550026,42.328388,NE,25560,1
NY,Jericho Rise,-74.10194399999997,44.911491,NE,26740,8
MA,Holy Name Catholic High School,-71.783897,42.240891,NE,24655,0
NY,Maple Ridge,-75.549194,43.76659,NE,32903,4
MA,Holiday Hill Community Wind,-72.870468,42.215057,NE,24654,0
MA,Hull Wind Phase II,-70.85659799999998,42.261192,NE,25586,0
MD,Criterion,-79.27268199999997,39.421104,NE,13659,5
NY,High Sheldon,-78.424797,42.758991,NE,23916,1
NY,Noble Altona,-73.637199,44.82078900000001,NE,37614,8
ME,Oakfield Wind,-68.136963,46.075249,NE,39139,3
NY,High Sheldon,-78.40909599999998,42.776093,NE,23917,1
